<?xml version='1.0' encoding='utf-8'?>
<gpx xmlns="http://www.topografix.com/GPX/1/1" xmlns:xsi="http://www.w3.org/2001/XMLSchema-instance" xmlns:gpxx="http://www.garmin.com/xmlschemas/GpxExtensions/v3" xmlns:gpxtrkx="http://www.garmin.com/xmlschemas/TrackStatsExtension/v1" xmlns:gpxtpx="http://www.garmin.com/xmlschemas/TrackPointExtension/v2" xmlns:locus="https://www.locusmap.app" version="1.1" creator="Locus Map, Android" xsi:schemaLocation="http://www.topografix.com/GPX/1/1 http://www.topografix.com/GPX/1/1/gpx.xsd">
  <metadata>
    <desc>File with points/tracks from Locus Map/4.35.0</desc>
    <time>2026-07-25T14:57:17.229Z</time>
  </metadata>
  <trk>
    <name>2024_via-ferrata_Doria</name>
    <extensions>
      <line xmlns="http://www.topografix.com/GPX/gpx_style/0/2">
        <color>0000FF</color>
        <opacity>0.59</opacity>
        <width>6.0</width>
        <extensions>
          <locus:lsColorBase>#960000FF</locus:lsColorBase>
          <locus:lsWidth>6.0</locus:lsWidth>
          <locus:lsUnits>PIXELS</locus:lsUnits>
        </extensions>
      </line>
      <locus:activity>walking</locus:activity>
      <locus:rteComputeType>3</locus:rteComputeType>
    </extensions>
    <trkseg>
      <trkpt lat="45.5968018" lon="5.9749980">
        <ele>576.25</ele>
        <time>1970-01-01T00:00:00.000Z</time>
      </trkpt>
      <trkpt lat="45.5970688" lon="5.9749680">
        <ele>572.25</ele>
        <time>1970-01-01T00:00:25.588Z</time>
      </trkpt>
      <trkpt lat="45.5975189" lon="5.9751492">
        <ele>578.25</ele>
        <time>1970-01-01T00:01:19.690Z</time>
      </trkpt>
      <trkpt lat="45.5978775" lon="5.9750171">
        <ele>588.50</ele>
        <time>1970-01-01T00:02:19.877Z</time>
      </trkpt>
      <trkpt lat="45.5981102" lon="5.9747300">
        <ele>598.25</ele>
        <time>1970-01-01T00:03:22.834Z</time>
      </trkpt>
      <trkpt lat="45.5983543" lon="5.9747519">
        <ele>604.00</ele>
        <time>1970-01-01T00:04:11.604Z</time>
      </trkpt>
      <trkpt lat="45.5985489" lon="5.9747081">
        <ele>608.00</ele>
        <time>1970-01-01T00:04:55.680Z</time>
      </trkpt>
      <trkpt lat="45.5988045" lon="5.9745660">
        <ele>614.25</ele>
        <time>1970-01-01T00:06:02.590Z</time>
      </trkpt>
      <trkpt lat="45.5990715" lon="5.9748569">
        <ele>616.75</ele>
        <time>1970-01-01T00:07:01.099Z</time>
      </trkpt>
      <trkpt lat="45.5993576" lon="5.9749298">
        <ele>619.25</ele>
        <time>1970-01-01T00:08:05.602Z</time>
      </trkpt>
      <trkpt lat="45.5996666" lon="5.9748611">
        <ele>623.00</ele>
        <time>1970-01-01T00:08:59.980Z</time>
      </trkpt>
      <trkpt lat="45.5999832" lon="5.9746861">
        <ele>632.25</ele>
        <time>1970-01-01T00:10:06.859Z</time>
      </trkpt>
      <trkpt lat="45.6002655" lon="5.9746699">
        <ele>638.50</ele>
        <time>1970-01-01T00:11:11.584Z</time>
      </trkpt>
      <trkpt lat="45.6005135" lon="5.9746981">
        <ele>648.25</ele>
        <time>1970-01-01T00:12:08.988Z</time>
      </trkpt>
      <trkpt lat="45.6007576" lon="5.9748640">
        <ele>654.75</ele>
        <time>1970-01-01T00:13:14.997Z</time>
      </trkpt>
      <trkpt lat="45.6010056" lon="5.9747839">
        <ele>666.75</ele>
        <time>1970-01-01T00:14:29.065Z</time>
      </trkpt>
      <trkpt lat="45.6011505" lon="5.9745822">
        <ele>677.25</ele>
        <time>1970-01-01T00:15:36.963Z</time>
      </trkpt>
      <trkpt lat="45.6013298" lon="5.9743972">
        <ele>684.50</ele>
        <time>1970-01-01T00:16:52.361Z</time>
      </trkpt>
      <trkpt lat="45.6014671" lon="5.9742432">
        <ele>689.75</ele>
        <time>1970-01-01T00:17:54.425Z</time>
      </trkpt>
      <trkpt lat="45.6016197" lon="5.9742250">
        <ele>692.50</ele>
        <time>1970-01-01T00:18:42.129Z</time>
      </trkpt>
      <trkpt lat="45.6017723" lon="5.9742732">
        <ele>696.00</ele>
        <time>1970-01-01T00:19:37.751Z</time>
      </trkpt>
      <trkpt lat="45.6020126" lon="5.9744220">
        <ele>700.75</ele>
        <time>1970-01-01T00:20:50.654Z</time>
      </trkpt>
      <trkpt lat="45.6022758" lon="5.9745641">
        <ele>698.75</ele>
        <time>1970-01-01T00:21:50.420Z</time>
      </trkpt>
      <trkpt lat="45.6024628" lon="5.9749079">
        <ele>695.75</ele>
        <time>1970-01-01T00:22:45.889Z</time>
      </trkpt>
      <trkpt lat="45.6025429" lon="5.9752021">
        <ele>699.75</ele>
        <time>1970-01-01T00:23:23.492Z</time>
      </trkpt>
      <trkpt lat="45.6026497" lon="5.9754429">
        <ele>699.00</ele>
        <time>1970-01-01T00:24:02.432Z</time>
      </trkpt>
      <trkpt lat="45.6029434" lon="5.9759812">
        <ele>704.00</ele>
        <time>1970-01-01T00:25:18.755Z</time>
      </trkpt>
      <trkpt lat="45.6031456" lon="5.9762988">
        <ele>710.00</ele>
        <time>1970-01-01T00:26:09.749Z</time>
      </trkpt>
      <trkpt lat="45.6033630" lon="5.9765329">
        <ele>715.00</ele>
        <time>1970-01-01T00:26:57.029Z</time>
      </trkpt>
      <trkpt lat="45.6034584" lon="5.9766698">
        <ele>717.25</ele>
        <time>1970-01-01T00:27:21.643Z</time>
      </trkpt>
      <trkpt lat="45.6035919" lon="5.9769578">
        <ele>721.25</ele>
        <time>1970-01-01T00:28:07.885Z</time>
      </trkpt>
      <trkpt lat="45.6037369" lon="5.9772339">
        <ele>727.75</ele>
        <time>1970-01-01T00:28:58.408Z</time>
      </trkpt>
      <trkpt lat="45.6038704" lon="5.9775672">
        <ele>732.75</ele>
        <time>1970-01-01T00:29:53.207Z</time>
      </trkpt>
      <trkpt lat="45.6039467" lon="5.9779530">
        <ele>737.00</ele>
        <time>1970-01-01T00:30:52.174Z</time>
      </trkpt>
      <trkpt lat="45.6041908" lon="5.9781742">
        <ele>746.25</ele>
        <time>1970-01-01T00:31:59.704Z</time>
      </trkpt>
      <trkpt lat="45.6043854" lon="5.9784160">
        <ele>753.75</ele>
        <time>1970-01-01T00:33:02.502Z</time>
      </trkpt>
      <trkpt lat="45.6044273" lon="5.9785829">
        <ele>756.00</ele>
        <time>1970-01-01T00:33:32.247Z</time>
      </trkpt>
      <trkpt lat="45.6047516" lon="5.9789939">
        <ele>767.00</ele>
        <time>1970-01-01T00:35:28.141Z</time>
      </trkpt>
      <trkpt lat="45.6048698" lon="5.9791369">
        <ele>769.25</ele>
        <time>1970-01-01T00:36:03.198Z</time>
      </trkpt>
      <trkpt lat="45.6050758" lon="5.9793558">
        <ele>772.75</ele>
        <time>1970-01-01T00:36:59.575Z</time>
      </trkpt>
      <trkpt lat="45.6053467" lon="5.9796920">
        <ele>775.75</ele>
        <time>1970-01-01T00:38:12.920Z</time>
      </trkpt>
      <trkpt lat="45.6054573" lon="5.9799519">
        <ele>786.25</ele>
        <time>1970-01-01T00:39:06.950Z</time>
      </trkpt>
      <trkpt lat="45.6055374" lon="5.9800010">
        <ele>790.25</ele>
        <time>1970-01-01T00:39:27.018Z</time>
      </trkpt>
      <trkpt lat="45.6058502" lon="5.9799738">
        <ele>800.75</ele>
        <time>1970-01-01T00:40:59.361Z</time>
      </trkpt>
      <trkpt lat="45.6059227" lon="5.9801779">
        <ele>811.50</ele>
        <time>1970-01-01T00:41:53.559Z</time>
      </trkpt>
      <trkpt lat="45.6065025" lon="5.9802098">
        <ele>829.25</ele>
        <time>1970-01-01T00:45:31.344Z</time>
      </trkpt>
      <trkpt lat="45.6066017" lon="5.9803338">
        <ele>836.75</ele>
        <time>1970-01-01T00:46:25.671Z</time>
      </trkpt>
      <trkpt lat="45.6066856" lon="5.9804220">
        <ele>843.75</ele>
        <time>1970-01-01T00:47:39.137Z</time>
      </trkpt>
      <trkpt lat="45.6067276" lon="5.9805241">
        <ele>850.50</ele>
        <time>1970-01-01T00:48:07.578Z</time>
      </trkpt>
      <trkpt lat="45.6067772" lon="5.9806881">
        <ele>861.25</ele>
        <time>1970-01-01T00:49:55.410Z</time>
      </trkpt>
      <trkpt lat="45.6068916" lon="5.9811440">
        <ele>884.25</ele>
        <time>1970-01-01T00:53:04.752Z</time>
      </trkpt>
      <trkpt lat="45.6068459" lon="5.9813051">
        <ele>889.50</ele>
        <time>1970-01-01T00:54:02.647Z</time>
      </trkpt>
      <trkpt lat="45.6070824" lon="5.9812942">
        <ele>898.75</ele>
        <time>1970-01-01T00:55:58.388Z</time>
      </trkpt>
      <trkpt lat="45.6072388" lon="5.9811330">
        <ele>903.25</ele>
        <time>1970-01-01T00:57:15.487Z</time>
      </trkpt>
      <trkpt lat="45.6074524" lon="5.9809608">
        <ele>907.75</ele>
        <time>1970-01-01T00:58:43.102Z</time>
      </trkpt>
      <trkpt lat="45.6075935" lon="5.9810419">
        <ele>918.00</ele>
        <time>1970-01-01T00:59:44.655Z</time>
      </trkpt>
      <trkpt lat="45.6076889" lon="5.9810448">
        <ele>922.00</ele>
        <time>1970-01-01T01:00:20.100Z</time>
      </trkpt>
      <trkpt lat="45.6080322" lon="5.9809561">
        <ele>927.50</ele>
        <time>1970-01-01T01:02:25.822Z</time>
      </trkpt>
      <trkpt lat="45.6082306" lon="5.9808030">
        <ele>921.75</ele>
        <time>1970-01-01T01:03:15.565Z</time>
      </trkpt>
      <trkpt lat="45.6085930" lon="5.9807830">
        <ele>928.50</ele>
        <time>1970-01-01T01:04:37.166Z</time>
      </trkpt>
      <trkpt lat="45.6085701" lon="5.9810228">
        <ele>937.50</ele>
        <time>1970-01-01T01:05:27.320Z</time>
      </trkpt>
      <trkpt lat="45.6087303" lon="5.9812498">
        <ele>951.50</ele>
        <time>1970-01-01T01:06:41.616Z</time>
      </trkpt>
      <trkpt lat="45.6088715" lon="5.9813571">
        <ele>957.75</ele>
        <time>1970-01-01T01:07:43.327Z</time>
      </trkpt>
      <trkpt lat="45.6090088" lon="5.9813871">
        <ele>962.25</ele>
        <time>1970-01-01T01:08:36.888Z</time>
      </trkpt>
      <trkpt lat="45.6091194" lon="5.9813089">
        <ele>964.50</ele>
        <time>1970-01-01T01:09:25.378Z</time>
      </trkpt>
      <trkpt lat="45.6092377" lon="5.9812689">
        <ele>979.75</ele>
        <time>1970-01-01T01:10:38.031Z</time>
      </trkpt>
      <trkpt lat="45.6092644" lon="5.9814191">
        <ele>991.25</ele>
        <time>1970-01-01T01:11:58.264Z</time>
      </trkpt>
      <trkpt lat="45.6093292" lon="5.9814162">
        <ele>1007.50</ele>
        <time>1970-01-01T01:13:14.345Z</time>
      </trkpt>
      <trkpt lat="45.6093063" lon="5.9810610">
        <ele>991.00</ele>
        <time>1970-01-01T01:14:13.306Z</time>
      </trkpt>
      <trkpt lat="45.6093559" lon="5.9806042">
        <ele>997.50</ele>
        <time>1970-01-01T01:15:15.939Z</time>
      </trkpt>
      <trkpt lat="45.6094284" lon="5.9800129">
        <ele>1004.50</ele>
        <time>1970-01-01T01:16:16.219Z</time>
      </trkpt>
      <trkpt lat="45.6092682" lon="5.9795389">
        <ele>1009.00</ele>
        <time>1970-01-01T01:17:19.629Z</time>
      </trkpt>
      <trkpt lat="45.6091385" lon="5.9793692">
        <ele>1009.75</ele>
        <time>1970-01-01T01:17:45.906Z</time>
      </trkpt>
      <trkpt lat="45.6090317" lon="5.9788022">
        <ele>1013.50</ele>
        <time>1970-01-01T01:18:44.460Z</time>
      </trkpt>
      <trkpt lat="45.6092415" lon="5.9788380">
        <ele>1028.25</ele>
        <time>1970-01-01T01:19:49.154Z</time>
      </trkpt>
      <trkpt lat="45.6093674" lon="5.9793830">
        <ele>1020.25</ele>
        <time>1970-01-01T01:20:47.017Z</time>
      </trkpt>
      <trkpt lat="45.6093979" lon="5.9789848">
        <ele>1036.25</ele>
        <time>1970-01-01T01:21:42.554Z</time>
      </trkpt>
      <trkpt lat="45.6095009" lon="5.9787512">
        <ele>1057.00</ele>
        <time>1970-01-01T01:22:54.745Z</time>
      </trkpt>
      <trkpt lat="45.6095695" lon="5.9787302">
        <ele>1070.50</ele>
        <time>1970-01-01T01:24:20.400Z</time>
      </trkpt>
      <trkpt lat="45.6096191" lon="5.9787440">
        <ele>1079.75</ele>
        <time>1970-01-01T01:24:41.521Z</time>
      </trkpt>
      <trkpt lat="45.6097565" lon="5.9787478">
        <ele>1111.25</ele>
        <time>1970-01-01T01:26:56.920Z</time>
      </trkpt>
      <trkpt lat="45.6097717" lon="5.9787321">
        <ele>1117.00</ele>
        <time>1970-01-01T01:27:13.906Z</time>
      </trkpt>
      <trkpt lat="45.6097641" lon="5.9785929">
        <ele>1127.25</ele>
        <time>1970-01-01T01:29:14.029Z</time>
      </trkpt>
      <trkpt lat="45.6097641" lon="5.9785171">
        <ele>1149.00</ele>
        <time>1970-01-01T01:30:58.471Z</time>
      </trkpt>
      <trkpt lat="45.6097565" lon="5.9784651">
        <ele>1162.25</ele>
        <time>1970-01-01T01:32:33.360Z</time>
      </trkpt>
      <trkpt lat="45.6097603" lon="5.9784389">
        <ele>1171.00</ele>
        <time>1970-01-01T01:43:19.278Z</time>
      </trkpt>
      <trkpt lat="45.6097717" lon="5.9784131">
        <ele>1180.75</ele>
        <time>1970-01-01T01:43:51.447Z</time>
      </trkpt>
      <trkpt lat="45.6097679" lon="5.9783540">
        <ele>1197.00</ele>
        <time>1970-01-01T01:45:58.281Z</time>
      </trkpt>
      <trkpt lat="45.6097946" lon="5.9783301">
        <ele>1205.25</ele>
        <time>1970-01-01T01:48:42.591Z</time>
      </trkpt>
      <trkpt lat="45.6098938" lon="5.9783702">
        <ele>1207.75</ele>
        <time>1970-01-01T01:52:51.568Z</time>
      </trkpt>
      <trkpt lat="45.6099930" lon="5.9784608">
        <ele>1215.00</ele>
        <time>1970-01-01T01:57:10.533Z</time>
      </trkpt>
      <trkpt lat="45.6100044" lon="5.9783878">
        <ele>1221.25</ele>
        <time>1970-01-01T01:58:56.376Z</time>
      </trkpt>
      <trkpt lat="45.6102905" lon="5.9781508">
        <ele>1231.75</ele>
        <time>1970-01-01T01:59:45.054Z</time>
      </trkpt>
      <trkpt lat="45.6104279" lon="5.9780869">
        <ele>1236.50</ele>
        <time>1970-01-01T02:01:10.966Z</time>
      </trkpt>
      <trkpt lat="45.6102333" lon="5.9774899">
        <ele>1239.25</ele>
        <time>1970-01-01T02:02:06.660Z</time>
      </trkpt>
      <trkpt lat="45.6102638" lon="5.9772100">
        <ele>1243.00</ele>
        <time>1970-01-01T02:02:33.283Z</time>
      </trkpt>
      <trkpt lat="45.6101608" lon="5.9768510">
        <ele>1248.50</ele>
        <time>1970-01-01T02:03:14.641Z</time>
      </trkpt>
      <trkpt lat="45.6101799" lon="5.9764152">
        <ele>1257.75</ele>
        <time>1970-01-01T02:04:08.221Z</time>
      </trkpt>
      <trkpt lat="45.6101723" lon="5.9762030">
        <ele>1260.75</ele>
        <time>1970-01-01T02:04:34.148Z</time>
      </trkpt>
      <trkpt lat="45.6103821" lon="5.9761038">
        <ele>1269.50</ele>
        <time>1970-01-01T02:05:20.177Z</time>
      </trkpt>
      <trkpt lat="45.6106262" lon="5.9762621">
        <ele>1275.50</ele>
        <time>1970-01-01T02:06:13.381Z</time>
      </trkpt>
      <trkpt lat="45.6108170" lon="5.9763718">
        <ele>1277.75</ele>
        <time>1970-01-01T02:06:51.988Z</time>
      </trkpt>
      <trkpt lat="45.6110497" lon="5.9765220">
        <ele>1278.75</ele>
        <time>1970-01-01T02:07:34.054Z</time>
      </trkpt>
      <trkpt lat="45.6113052" lon="5.9766731">
        <ele>1277.25</ele>
        <time>1970-01-01T02:08:13.048Z</time>
      </trkpt>
      <trkpt lat="45.6113091" lon="5.9764891">
        <ele>1280.75</ele>
        <time>1970-01-01T02:09:24.727Z</time>
      </trkpt>
      <trkpt lat="45.6112556" lon="5.9762812">
        <ele>1284.00</ele>
        <time>1970-01-01T02:09:56.156Z</time>
      </trkpt>
      <trkpt lat="45.6110382" lon="5.9760399">
        <ele>1286.75</ele>
        <time>1970-01-01T02:10:52.063Z</time>
      </trkpt>
      <trkpt lat="45.6109390" lon="5.9755578">
        <ele>1296.00</ele>
        <time>1970-01-01T02:12:17.407Z</time>
      </trkpt>
      <trkpt lat="45.6109734" lon="5.9754200">
        <ele>1300.25</ele>
        <time>1970-01-01T02:12:41.989Z</time>
      </trkpt>
      <trkpt lat="45.6111717" lon="5.9753451">
        <ele>1307.00</ele>
        <time>1970-01-01T02:13:40.261Z</time>
      </trkpt>
      <trkpt lat="45.6113586" lon="5.9752011">
        <ele>1315.75</ele>
        <time>1970-01-01T02:14:49.539Z</time>
      </trkpt>
      <trkpt lat="45.6114845" lon="5.9751639">
        <ele>1319.50</ele>
        <time>1970-01-01T02:15:29.214Z</time>
      </trkpt>
      <trkpt lat="45.6115532" lon="5.9749842">
        <ele>1324.25</ele>
        <time>1970-01-01T02:16:16.587Z</time>
      </trkpt>
      <trkpt lat="45.6121597" lon="5.9744821">
        <ele>1346.00</ele>
        <time>1970-01-01T02:21:06.889Z</time>
      </trkpt>
      <trkpt lat="45.6125336" lon="5.9740858">
        <ele>1360.50</ele>
        <time>1970-01-01T02:23:58.594Z</time>
      </trkpt>
      <trkpt lat="45.6126022" lon="5.9738450">
        <ele>1366.50</ele>
        <time>1970-01-01T02:24:59.728Z</time>
      </trkpt>
      <trkpt lat="45.6127052" lon="5.9737120">
        <ele>1371.00</ele>
        <time>1970-01-01T02:25:51.049Z</time>
      </trkpt>
      <trkpt lat="45.6128616" lon="5.9735241">
        <ele>1377.00</ele>
        <time>1970-01-01T02:26:58.756Z</time>
      </trkpt>
      <trkpt lat="45.6130333" lon="5.9733710">
        <ele>1383.50</ele>
        <time>1970-01-01T02:28:12.718Z</time>
      </trkpt>
      <trkpt lat="45.6131630" lon="5.9731922">
        <ele>1393.50</ele>
        <time>1970-01-01T02:29:24.155Z</time>
      </trkpt>
      <trkpt lat="45.6131516" lon="5.9729409">
        <ele>1402.25</ele>
        <time>1970-01-01T02:30:47.715Z</time>
      </trkpt>
      <trkpt lat="45.6131325" lon="5.9727960">
        <ele>1406.75</ele>
        <time>1970-01-01T02:31:15.848Z</time>
      </trkpt>
      <trkpt lat="45.6131477" lon="5.9724998">
        <ele>1412.00</ele>
        <time>1970-01-01T02:32:14.744Z</time>
      </trkpt>
      <trkpt lat="45.6131287" lon="5.9722209">
        <ele>1418.25</ele>
        <time>1970-01-01T02:33:07.340Z</time>
      </trkpt>
      <trkpt lat="45.6131706" lon="5.9721189">
        <ele>1420.75</ele>
        <time>1970-01-01T02:33:28.794Z</time>
      </trkpt>
      <trkpt lat="45.6132545" lon="5.9718661">
        <ele>1426.00</ele>
        <time>1970-01-01T02:34:22.590Z</time>
      </trkpt>
      <trkpt lat="45.6130753" lon="5.9716721">
        <ele>1428.00</ele>
        <time>1970-01-01T02:35:32.742Z</time>
      </trkpt>
      <trkpt lat="45.6129684" lon="5.9712472">
        <ele>1438.50</ele>
        <time>1970-01-01T02:37:19.168Z</time>
      </trkpt>
      <trkpt lat="45.6130409" lon="5.9709258">
        <ele>1445.00</ele>
        <time>1970-01-01T02:38:33.520Z</time>
      </trkpt>
      <trkpt lat="45.6131477" lon="5.9707780">
        <ele>1448.75</ele>
        <time>1970-01-01T02:39:20.278Z</time>
      </trkpt>
      <trkpt lat="45.6132584" lon="5.9705901">
        <ele>1453.00</ele>
        <time>1970-01-01T02:40:12.338Z</time>
      </trkpt>
      <trkpt lat="45.6133614" lon="5.9702711">
        <ele>1458.25</ele>
        <time>1970-01-01T02:41:22.567Z</time>
      </trkpt>
      <trkpt lat="45.6133308" lon="5.9700608">
        <ele>1465.00</ele>
        <time>1970-01-01T02:42:11.573Z</time>
      </trkpt>
      <trkpt lat="45.6132088" lon="5.9696031">
        <ele>1471.75</ele>
        <time>1970-01-01T02:43:59.476Z</time>
      </trkpt>
      <trkpt lat="45.6130333" lon="5.9690709">
        <ele>1478.75</ele>
        <time>1970-01-01T02:45:57.270Z</time>
      </trkpt>
      <trkpt lat="45.6129150" lon="5.9688802">
        <ele>1479.50</ele>
        <time>1970-01-01T02:46:41.474Z</time>
      </trkpt>
      <trkpt lat="45.6127014" lon="5.9686179">
        <ele>1463.75</ele>
        <time>1970-01-01T02:47:27.341Z</time>
      </trkpt>
      <trkpt lat="45.6127014" lon="5.9686179">
        <ele>1463.75</ele>
        <time>1970-01-01T03:05:09.083Z</time>
      </trkpt>
      <trkpt lat="45.6126175" lon="5.9685349">
        <ele>1444.00</ele>
        <time>1970-01-01T03:06:10.382Z</time>
      </trkpt>
      <trkpt lat="45.6126137" lon="5.9683442">
        <ele>1438.75</ele>
        <time>1970-01-01T03:07:26.512Z</time>
      </trkpt>
      <trkpt lat="45.6126480" lon="5.9680929">
        <ele>1449.25</ele>
        <time>1970-01-01T03:08:31.969Z</time>
      </trkpt>
      <trkpt lat="45.6126595" lon="5.9679389">
        <ele>1446.50</ele>
        <time>1970-01-01T03:09:08.905Z</time>
      </trkpt>
      <trkpt lat="45.6126442" lon="5.9676261">
        <ele>1432.00</ele>
        <time>1970-01-01T03:10:49.151Z</time>
      </trkpt>
      <trkpt lat="45.6125908" lon="5.9674382">
        <ele>1422.50</ele>
        <time>1970-01-01T03:12:02.173Z</time>
      </trkpt>
      <trkpt lat="45.6125488" lon="5.9672012">
        <ele>1418.00</ele>
        <time>1970-01-01T03:13:27.317Z</time>
      </trkpt>
      <trkpt lat="45.6125107" lon="5.9670219">
        <ele>1414.00</ele>
        <time>1970-01-01T03:14:24.537Z</time>
      </trkpt>
      <trkpt lat="45.6125183" lon="5.9667029">
        <ele>1416.75</ele>
        <time>1970-01-01T03:15:35.760Z</time>
      </trkpt>
      <trkpt lat="45.6123848" lon="5.9663172">
        <ele>1405.00</ele>
        <time>1970-01-01T03:17:23.440Z</time>
      </trkpt>
      <trkpt lat="45.6123047" lon="5.9659338">
        <ele>1399.75</ele>
        <time>1970-01-01T03:18:53.666Z</time>
      </trkpt>
      <trkpt lat="45.6121788" lon="5.9654999">
        <ele>1389.75</ele>
        <time>1970-01-01T03:20:17.758Z</time>
      </trkpt>
      <trkpt lat="45.6120834" lon="5.9653268">
        <ele>1385.00</ele>
        <time>1970-01-01T03:20:53.865Z</time>
      </trkpt>
      <trkpt lat="45.6118736" lon="5.9651031">
        <ele>1373.75</ele>
        <time>1970-01-01T03:22:06.759Z</time>
      </trkpt>
      <trkpt lat="45.6116066" lon="5.9648299">
        <ele>1360.25</ele>
        <time>1970-01-01T03:22:56.014Z</time>
      </trkpt>
      <trkpt lat="45.6114044" lon="5.9646111">
        <ele>1351.50</ele>
        <time>1970-01-01T03:23:41.093Z</time>
      </trkpt>
      <trkpt lat="45.6111755" lon="5.9643168">
        <ele>1338.75</ele>
        <time>1970-01-01T03:24:40.525Z</time>
      </trkpt>
      <trkpt lat="45.6109428" lon="5.9640641">
        <ele>1329.50</ele>
        <time>1970-01-01T03:25:40.135Z</time>
      </trkpt>
      <trkpt lat="45.6107254" lon="5.9637651">
        <ele>1322.25</ele>
        <time>1970-01-01T03:26:42.433Z</time>
      </trkpt>
      <trkpt lat="45.6104927" lon="5.9634962">
        <ele>1314.25</ele>
        <time>1970-01-01T03:27:42.181Z</time>
      </trkpt>
      <trkpt lat="45.6102943" lon="5.9632411">
        <ele>1303.75</ele>
        <time>1970-01-01T03:28:41.521Z</time>
      </trkpt>
      <trkpt lat="45.6101685" lon="5.9630189">
        <ele>1296.25</ele>
        <time>1970-01-01T03:29:25.767Z</time>
      </trkpt>
      <trkpt lat="45.6099968" lon="5.9627838">
        <ele>1292.00</ele>
        <time>1970-01-01T03:30:16.924Z</time>
      </trkpt>
      <trkpt lat="45.6098022" lon="5.9625540">
        <ele>1287.25</ele>
        <time>1970-01-01T03:31:07.378Z</time>
      </trkpt>
      <trkpt lat="45.6095428" lon="5.9623318">
        <ele>1279.75</ele>
        <time>1970-01-01T03:32:08.145Z</time>
      </trkpt>
      <trkpt lat="45.6093941" lon="5.9619398">
        <ele>1275.00</ele>
        <time>1970-01-01T03:33:02.817Z</time>
      </trkpt>
      <trkpt lat="45.6093216" lon="5.9615588">
        <ele>1277.00</ele>
        <time>1970-01-01T03:33:41.556Z</time>
      </trkpt>
      <trkpt lat="45.6090584" lon="5.9611101">
        <ele>1269.50</ele>
        <time>1970-01-01T03:34:35.483Z</time>
      </trkpt>
      <trkpt lat="45.6088295" lon="5.9608259">
        <ele>1263.00</ele>
        <time>1970-01-01T03:35:20.968Z</time>
      </trkpt>
      <trkpt lat="45.6084633" lon="5.9610152">
        <ele>1255.00</ele>
        <time>1970-01-01T03:36:21.934Z</time>
      </trkpt>
      <trkpt lat="45.6081696" lon="5.9610882">
        <ele>1247.75</ele>
        <time>1970-01-01T03:37:10.046Z</time>
      </trkpt>
      <trkpt lat="45.6078987" lon="5.9615769">
        <ele>1233.50</ele>
        <time>1970-01-01T03:38:35.194Z</time>
      </trkpt>
      <trkpt lat="45.6075783" lon="5.9617629">
        <ele>1224.00</ele>
        <time>1970-01-01T03:39:40.637Z</time>
      </trkpt>
      <trkpt lat="45.6071968" lon="5.9617109">
        <ele>1218.00</ele>
        <time>1970-01-01T03:40:44.120Z</time>
      </trkpt>
      <trkpt lat="45.6068840" lon="5.9617338">
        <ele>1205.25</ele>
        <time>1970-01-01T03:41:41.097Z</time>
      </trkpt>
      <trkpt lat="45.6066055" lon="5.9616432">
        <ele>1196.75</ele>
        <time>1970-01-01T03:42:40.594Z</time>
      </trkpt>
      <trkpt lat="45.6063232" lon="5.9616132">
        <ele>1191.00</ele>
        <time>1970-01-01T03:43:32.918Z</time>
      </trkpt>
      <trkpt lat="45.6060486" lon="5.9616599">
        <ele>1186.00</ele>
        <time>1970-01-01T03:44:26.667Z</time>
      </trkpt>
      <trkpt lat="45.6057625" lon="5.9616451">
        <ele>1180.50</ele>
        <time>1970-01-01T03:45:18.047Z</time>
      </trkpt>
      <trkpt lat="45.6054382" lon="5.9617190">
        <ele>1169.75</ele>
        <time>1970-01-01T03:46:20.875Z</time>
      </trkpt>
      <trkpt lat="45.6052170" lon="5.9617629">
        <ele>1165.50</ele>
        <time>1970-01-01T03:47:02.353Z</time>
      </trkpt>
      <trkpt lat="45.6049805" lon="5.9618511">
        <ele>1161.50</ele>
        <time>1970-01-01T03:47:43.944Z</time>
      </trkpt>
      <trkpt lat="45.6046333" lon="5.9617290">
        <ele>1154.75</ele>
        <time>1970-01-01T03:48:41.744Z</time>
      </trkpt>
      <trkpt lat="45.6043892" lon="5.9617548">
        <ele>1151.50</ele>
        <time>1970-01-01T03:49:19.871Z</time>
      </trkpt>
      <trkpt lat="45.6040649" lon="5.9618778">
        <ele>1147.25</ele>
        <time>1970-01-01T03:50:09.815Z</time>
      </trkpt>
      <trkpt lat="45.6037865" lon="5.9621949">
        <ele>1135.75</ele>
        <time>1970-01-01T03:51:07.653Z</time>
      </trkpt>
      <trkpt lat="45.6035118" lon="5.9619789">
        <ele>1125.25</ele>
        <time>1970-01-01T03:52:15.819Z</time>
      </trkpt>
      <trkpt lat="45.6033325" lon="5.9616861">
        <ele>1115.25</ele>
        <time>1970-01-01T03:53:11.282Z</time>
      </trkpt>
      <trkpt lat="45.6032448" lon="5.9617982">
        <ele>1104.00</ele>
        <time>1970-01-01T03:53:55.967Z</time>
      </trkpt>
      <trkpt lat="45.6031342" lon="5.9619322">
        <ele>1092.00</ele>
        <time>1970-01-01T03:55:03.497Z</time>
      </trkpt>
      <trkpt lat="45.6029587" lon="5.9616051">
        <ele>1083.50</ele>
        <time>1970-01-01T03:56:14.466Z</time>
      </trkpt>
      <trkpt lat="45.6027641" lon="5.9613800">
        <ele>1072.75</ele>
        <time>1970-01-01T03:57:19.642Z</time>
      </trkpt>
      <trkpt lat="45.6025963" lon="5.9613328">
        <ele>1062.25</ele>
        <time>1970-01-01T03:58:20.250Z</time>
      </trkpt>
      <trkpt lat="45.6025314" lon="5.9610171">
        <ele>1054.25</ele>
        <time>1970-01-01T03:59:23.217Z</time>
      </trkpt>
      <trkpt lat="45.6025162" lon="5.9608002">
        <ele>1049.00</ele>
        <time>1970-01-01T04:00:05.238Z</time>
      </trkpt>
      <trkpt lat="45.6024132" lon="5.9605780">
        <ele>1045.25</ele>
        <time>1970-01-01T04:00:52.865Z</time>
      </trkpt>
      <trkpt lat="45.6022568" lon="5.9605241">
        <ele>1044.00</ele>
        <time>1970-01-01T04:01:27.821Z</time>
      </trkpt>
      <trkpt lat="45.6019974" lon="5.9605060">
        <ele>1039.50</ele>
        <time>1970-01-01T04:02:20.046Z</time>
      </trkpt>
      <trkpt lat="45.6018066" lon="5.9607821">
        <ele>1032.50</ele>
        <time>1970-01-01T04:03:14.466Z</time>
      </trkpt>
      <trkpt lat="45.6017456" lon="5.9609299">
        <ele>1028.25</ele>
        <time>1970-01-01T04:03:37.302Z</time>
      </trkpt>
      <trkpt lat="45.6016350" lon="5.9614201">
        <ele>1014.00</ele>
        <time>1970-01-01T04:04:38.612Z</time>
      </trkpt>
      <trkpt lat="45.6012726" lon="5.9618492">
        <ele>998.50</ele>
        <time>1970-01-01T04:05:32.244Z</time>
      </trkpt>
      <trkpt lat="45.6009026" lon="5.9621482">
        <ele>980.50</ele>
        <time>1970-01-01T04:06:38.291Z</time>
      </trkpt>
      <trkpt lat="45.6005936" lon="5.9625731">
        <ele>966.00</ele>
        <time>1970-01-01T04:07:52.813Z</time>
      </trkpt>
      <trkpt lat="45.6002846" lon="5.9628949">
        <ele>951.25</ele>
        <time>1970-01-01T04:09:05.755Z</time>
      </trkpt>
      <trkpt lat="45.6000710" lon="5.9630070">
        <ele>942.75</ele>
        <time>1970-01-01T04:09:47.073Z</time>
      </trkpt>
      <trkpt lat="45.5997429" lon="5.9632668">
        <ele>931.00</ele>
        <time>1970-01-01T04:11:01.102Z</time>
      </trkpt>
      <trkpt lat="45.5994644" lon="5.9632931">
        <ele>919.00</ele>
        <time>1970-01-01T04:12:02.265Z</time>
      </trkpt>
      <trkpt lat="45.5994339" lon="5.9637160">
        <ele>910.75</ele>
        <time>1970-01-01T04:13:06.583Z</time>
      </trkpt>
      <trkpt lat="45.5991478" lon="5.9637861">
        <ele>899.25</ele>
        <time>1970-01-01T04:14:13.624Z</time>
      </trkpt>
      <trkpt lat="45.5989418" lon="5.9637461">
        <ele>892.00</ele>
        <time>1970-01-01T04:15:03.871Z</time>
      </trkpt>
      <trkpt lat="45.5986900" lon="5.9636250">
        <ele>883.50</ele>
        <time>1970-01-01T04:16:08.602Z</time>
      </trkpt>
      <trkpt lat="45.5984688" lon="5.9635062">
        <ele>877.25</ele>
        <time>1970-01-01T04:17:04.693Z</time>
      </trkpt>
      <trkpt lat="45.5982285" lon="5.9634700">
        <ele>873.75</ele>
        <time>1970-01-01T04:17:55.719Z</time>
      </trkpt>
      <trkpt lat="45.5979538" lon="5.9633231">
        <ele>873.00</ele>
        <time>1970-01-01T04:18:44.694Z</time>
      </trkpt>
      <trkpt lat="45.5976410" lon="5.9632888">
        <ele>868.25</ele>
        <time>1970-01-01T04:19:33.930Z</time>
      </trkpt>
      <trkpt lat="45.5972977" lon="5.9633942">
        <ele>860.25</ele>
        <time>1970-01-01T04:20:28.226Z</time>
      </trkpt>
      <trkpt lat="45.5969849" lon="5.9633222">
        <ele>851.25</ele>
        <time>1970-01-01T04:21:25.139Z</time>
      </trkpt>
      <trkpt lat="45.5968323" lon="5.9633451">
        <ele>848.25</ele>
        <time>1970-01-01T04:21:50.626Z</time>
      </trkpt>
      <trkpt lat="45.5965614" lon="5.9636402">
        <ele>840.00</ele>
        <time>1970-01-01T04:22:49.956Z</time>
      </trkpt>
      <trkpt lat="45.5962944" lon="5.9637752">
        <ele>834.75</ele>
        <time>1970-01-01T04:23:37.697Z</time>
      </trkpt>
      <trkpt lat="45.5960236" lon="5.9640212">
        <ele>828.25</ele>
        <time>1970-01-01T04:24:29.982Z</time>
      </trkpt>
      <trkpt lat="45.5956726" lon="5.9640508">
        <ele>824.00</ele>
        <time>1970-01-01T04:25:33.395Z</time>
      </trkpt>
      <trkpt lat="45.5955467" lon="5.9641118">
        <ele>821.00</ele>
        <time>1970-01-01T04:25:52.841Z</time>
      </trkpt>
      <trkpt lat="45.5954094" lon="5.9644799">
        <ele>812.50</ele>
        <time>1970-01-01T04:26:38.330Z</time>
      </trkpt>
      <trkpt lat="45.5952835" lon="5.9647031">
        <ele>805.50</ele>
        <time>1970-01-01T04:27:13.357Z</time>
      </trkpt>
      <trkpt lat="45.5948792" lon="5.9647832">
        <ele>794.50</ele>
        <time>1970-01-01T04:28:33.509Z</time>
      </trkpt>
      <trkpt lat="45.5946198" lon="5.9648628">
        <ele>786.75</ele>
        <time>1970-01-01T04:29:22.023Z</time>
      </trkpt>
      <trkpt lat="45.5943336" lon="5.9649110">
        <ele>778.50</ele>
        <time>1970-01-01T04:30:18.705Z</time>
      </trkpt>
      <trkpt lat="45.5941277" lon="5.9648700">
        <ele>773.50</ele>
        <time>1970-01-01T04:30:58.920Z</time>
      </trkpt>
      <trkpt lat="45.5938606" lon="5.9649010">
        <ele>765.25</ele>
        <time>1970-01-01T04:31:55.717Z</time>
      </trkpt>
      <trkpt lat="45.5936165" lon="5.9649429">
        <ele>757.50</ele>
        <time>1970-01-01T04:32:44.327Z</time>
      </trkpt>
      <trkpt lat="45.5933075" lon="5.9650469">
        <ele>748.00</ele>
        <time>1970-01-01T04:33:47.911Z</time>
      </trkpt>
      <trkpt lat="45.5930443" lon="5.9651928">
        <ele>741.75</ele>
        <time>1970-01-01T04:34:53.675Z</time>
      </trkpt>
      <trkpt lat="45.5930481" lon="5.9655409">
        <ele>733.25</ele>
        <time>1970-01-01T04:35:38.796Z</time>
      </trkpt>
      <trkpt lat="45.5930023" lon="5.9660568">
        <ele>725.50</ele>
        <time>1970-01-01T04:36:30.041Z</time>
      </trkpt>
      <trkpt lat="45.5935631" lon="5.9664922">
        <ele>721.00</ele>
        <time>1970-01-01T04:37:25.940Z</time>
      </trkpt>
      <trkpt lat="45.5938759" lon="5.9667249">
        <ele>717.25</ele>
        <time>1970-01-01T04:38:08.911Z</time>
      </trkpt>
      <trkpt lat="45.5942726" lon="5.9670982">
        <ele>712.50</ele>
        <time>1970-01-01T04:39:06.348Z</time>
      </trkpt>
      <trkpt lat="45.5945396" lon="5.9674740">
        <ele>707.00</ele>
        <time>1970-01-01T04:39:53.438Z</time>
      </trkpt>
      <trkpt lat="45.5949173" lon="5.9676852">
        <ele>704.75</ele>
        <time>1970-01-01T04:40:42.377Z</time>
      </trkpt>
      <trkpt lat="45.5951462" lon="5.9678679">
        <ele>702.00</ele>
        <time>1970-01-01T04:41:14.867Z</time>
      </trkpt>
      <trkpt lat="45.5954437" lon="5.9681411">
        <ele>698.50</ele>
        <time>1970-01-01T04:41:59.262Z</time>
      </trkpt>
      <trkpt lat="45.5957222" lon="5.9684582">
        <ele>694.75</ele>
        <time>1970-01-01T04:42:42.701Z</time>
      </trkpt>
      <trkpt lat="45.5961838" lon="5.9689388">
        <ele>689.50</ele>
        <time>1970-01-01T04:43:37.754Z</time>
      </trkpt>
      <trkpt lat="45.5966148" lon="5.9695292">
        <ele>685.00</ele>
        <time>1970-01-01T04:44:33.964Z</time>
      </trkpt>
      <trkpt lat="45.5968781" lon="5.9700112">
        <ele>680.75</ele>
        <time>1970-01-01T04:45:19.218Z</time>
      </trkpt>
      <trkpt lat="45.5968857" lon="5.9708061">
        <ele>670.00</ele>
        <time>1970-01-01T04:46:14.969Z</time>
      </trkpt>
      <trkpt lat="45.5969467" lon="5.9713330">
        <ele>658.00</ele>
        <time>1970-01-01T04:47:01.799Z</time>
      </trkpt>
      <trkpt lat="45.5970612" lon="5.9718232">
        <ele>644.00</ele>
        <time>1970-01-01T04:47:56.057Z</time>
      </trkpt>
      <trkpt lat="45.5972443" lon="5.9721599">
        <ele>633.75</ele>
        <time>1970-01-01T04:48:46.129Z</time>
      </trkpt>
      <trkpt lat="45.5973740" lon="5.9725528">
        <ele>628.25</ele>
        <time>1970-01-01T04:49:41.533Z</time>
      </trkpt>
      <trkpt lat="45.5973473" lon="5.9730039">
        <ele>618.75</ele>
        <time>1970-01-01T04:50:31.804Z</time>
      </trkpt>
      <trkpt lat="45.5972710" lon="5.9734020">
        <ele>602.75</ele>
        <time>1970-01-01T04:51:37.318Z</time>
      </trkpt>
      <trkpt lat="45.5971794" lon="5.9736600">
        <ele>594.25</ele>
        <time>1970-01-01T04:52:25.820Z</time>
      </trkpt>
      <trkpt lat="45.5971947" lon="5.9739270">
        <ele>589.00</ele>
        <time>1970-01-01T04:53:20.926Z</time>
      </trkpt>
      <trkpt lat="45.5972443" lon="5.9742932">
        <ele>581.75</ele>
        <time>1970-01-01T04:54:07.008Z</time>
      </trkpt>
      <trkpt lat="45.5972061" lon="5.9746151">
        <ele>575.00</ele>
        <time>1970-01-01T04:54:45.317Z</time>
      </trkpt>
      <trkpt lat="45.5970917" lon="5.9749579">
        <ele>572.25</ele>
        <time>1970-01-01T04:55:42.714Z</time>
      </trkpt>
      <trkpt lat="45.5968399" lon="5.9746819">
        <ele>569.00</ele>
        <time>1970-01-01T04:56:31.437Z</time>
      </trkpt>
      <trkpt lat="45.5963936" lon="5.9741769">
        <ele>558.75</ele>
        <time>1970-01-01T04:57:27.822Z</time>
      </trkpt>
    </trkseg>
  </trk>
</gpx>
