<?xml version='1.0' encoding='utf-8'?>
<gpx xmlns="http://www.topografix.com/GPX/1/1" xmlns:xsi="http://www.w3.org/2001/XMLSchema-instance" xmlns:gpxx="http://www.garmin.com/xmlschemas/GpxExtensions/v3" xmlns:gpxtrkx="http://www.garmin.com/xmlschemas/TrackStatsExtension/v1" xmlns:gpxtpx="http://www.garmin.com/xmlschemas/TrackPointExtension/v2" xmlns:locus="https://www.locusmap.app" version="1.1" creator="Locus Map, Android" xsi:schemaLocation="http://www.topografix.com/GPX/1/1 http://www.topografix.com/GPX/1/1/gpx.xsd">
  <metadata>
    <desc>File with points/tracks from Locus Map/4.35.0</desc>
    <time>2026-07-25T14:53:52.780Z</time>
  </metadata>
  <trk>
    <name>20250724_Hiking</name>
    <extensions>
      <line xmlns="http://www.topografix.com/GPX/gpx_style/0/2">
        <color>0000FF</color>
        <opacity>0.59</opacity>
        <width>6.0</width>
        <extensions>
          <locus:lsColorBase>#960000FF</locus:lsColorBase>
          <locus:lsWidth>6.0</locus:lsWidth>
          <locus:lsUnits>PIXELS</locus:lsUnits>
        </extensions>
      </line>
      <locus:activity>walking</locus:activity>
      <locus:rteComputeType>3</locus:rteComputeType>
    </extensions>
    <trkseg>
      <trkpt lat="45.3653641" lon="5.8340359">
        <ele>1138.00</ele>
        <time>1970-01-01T00:00:00.000Z</time>
      </trkpt>
      <trkpt lat="45.3658524" lon="5.8338542">
        <ele>1140.25</ele>
        <time>1970-01-01T00:00:57.343Z</time>
      </trkpt>
      <trkpt lat="45.3661995" lon="5.8336411">
        <ele>1145.75</ele>
        <time>1970-01-01T00:01:36.798Z</time>
      </trkpt>
      <trkpt lat="45.3661880" lon="5.8331528">
        <ele>1154.00</ele>
        <time>1970-01-01T00:02:31.009Z</time>
      </trkpt>
      <trkpt lat="45.3659859" lon="5.8329568">
        <ele>1155.75</ele>
        <time>1970-01-01T00:03:10.622Z</time>
      </trkpt>
      <trkpt lat="45.3656731" lon="5.8325758">
        <ele>1162.25</ele>
        <time>1970-01-01T00:04:24.296Z</time>
      </trkpt>
      <trkpt lat="45.3655586" lon="5.8323989">
        <ele>1165.25</ele>
        <time>1970-01-01T00:04:54.188Z</time>
      </trkpt>
      <trkpt lat="45.3654327" lon="5.8321438">
        <ele>1168.75</ele>
        <time>1970-01-01T00:05:33.291Z</time>
      </trkpt>
      <trkpt lat="45.3653069" lon="5.8314362">
        <ele>1186.50</ele>
        <time>1970-01-01T00:07:43.414Z</time>
      </trkpt>
      <trkpt lat="45.3651466" lon="5.8310628">
        <ele>1191.75</ele>
        <time>1970-01-01T00:08:51.935Z</time>
      </trkpt>
      <trkpt lat="45.3650017" lon="5.8306022">
        <ele>1200.50</ele>
        <time>1970-01-01T00:10:15.497Z</time>
      </trkpt>
      <trkpt lat="45.3649673" lon="5.8302832">
        <ele>1208.25</ele>
        <time>1970-01-01T00:11:11.726Z</time>
      </trkpt>
      <trkpt lat="45.3648834" lon="5.8300252">
        <ele>1212.25</ele>
        <time>1970-01-01T00:11:59.752Z</time>
      </trkpt>
      <trkpt lat="45.3648491" lon="5.8295450">
        <ele>1223.75</ele>
        <time>1970-01-01T00:13:36.389Z</time>
      </trkpt>
      <trkpt lat="45.3647957" lon="5.8293762">
        <ele>1226.50</ele>
        <time>1970-01-01T00:14:10.390Z</time>
      </trkpt>
      <trkpt lat="45.3647385" lon="5.8291588">
        <ele>1230.75</ele>
        <time>1970-01-01T00:14:52.119Z</time>
      </trkpt>
      <trkpt lat="45.3645897" lon="5.8289928">
        <ele>1229.50</ele>
        <time>1970-01-01T00:15:32.956Z</time>
      </trkpt>
      <trkpt lat="45.3642540" lon="5.8288002">
        <ele>1221.00</ele>
        <time>1970-01-01T00:16:28.524Z</time>
      </trkpt>
      <trkpt lat="45.3641243" lon="5.8283200">
        <ele>1223.75</ele>
        <time>1970-01-01T00:17:20.006Z</time>
      </trkpt>
      <trkpt lat="45.3642006" lon="5.8278799">
        <ele>1227.75</ele>
        <time>1970-01-01T00:18:08.252Z</time>
      </trkpt>
      <trkpt lat="45.3642921" lon="5.8274989">
        <ele>1230.00</ele>
        <time>1970-01-01T00:18:53.068Z</time>
      </trkpt>
      <trkpt lat="45.3643761" lon="5.8270292">
        <ele>1228.25</ele>
        <time>1970-01-01T00:19:40.331Z</time>
      </trkpt>
      <trkpt lat="45.3645287" lon="5.8264661">
        <ele>1225.50</ele>
        <time>1970-01-01T00:20:34.241Z</time>
      </trkpt>
      <trkpt lat="45.3646851" lon="5.8260932">
        <ele>1226.75</ele>
        <time>1970-01-01T00:21:12.962Z</time>
      </trkpt>
      <trkpt lat="45.3649635" lon="5.8258648">
        <ele>1238.50</ele>
        <time>1970-01-01T00:22:10.071Z</time>
      </trkpt>
      <trkpt lat="45.3651543" lon="5.8257818">
        <ele>1248.50</ele>
        <time>1970-01-01T00:22:45.452Z</time>
      </trkpt>
      <trkpt lat="45.3656006" lon="5.8256879">
        <ele>1274.50</ele>
        <time>1970-01-01T00:25:03.696Z</time>
      </trkpt>
      <trkpt lat="45.3656654" lon="5.8255348">
        <ele>1280.00</ele>
        <time>1970-01-01T00:25:36.384Z</time>
      </trkpt>
      <trkpt lat="45.3655624" lon="5.8251548">
        <ele>1280.25</ele>
        <time>1970-01-01T00:26:41.007Z</time>
      </trkpt>
      <trkpt lat="45.3655930" lon="5.8248758">
        <ele>1286.00</ele>
        <time>1970-01-01T00:27:22.259Z</time>
      </trkpt>
      <trkpt lat="45.3657265" lon="5.8245988">
        <ele>1298.50</ele>
        <time>1970-01-01T00:28:26.402Z</time>
      </trkpt>
      <trkpt lat="45.3657913" lon="5.8244200">
        <ele>1303.50</ele>
        <time>1970-01-01T00:29:04.627Z</time>
      </trkpt>
      <trkpt lat="45.3659592" lon="5.8241510">
        <ele>1314.75</ele>
        <time>1970-01-01T00:30:17.606Z</time>
      </trkpt>
      <trkpt lat="45.3660583" lon="5.8244572">
        <ele>1324.75</ele>
        <time>1970-01-01T00:31:34.581Z</time>
      </trkpt>
      <trkpt lat="45.3661461" lon="5.8246479">
        <ele>1331.50</ele>
        <time>1970-01-01T00:32:24.086Z</time>
      </trkpt>
      <trkpt lat="45.3663864" lon="5.8244729">
        <ele>1349.75</ele>
        <time>1970-01-01T00:34:21.308Z</time>
      </trkpt>
      <trkpt lat="45.3665085" lon="5.8243341">
        <ele>1357.50</ele>
        <time>1970-01-01T00:35:23.707Z</time>
      </trkpt>
      <trkpt lat="45.3666573" lon="5.8243790">
        <ele>1368.75</ele>
        <time>1970-01-01T00:36:50.140Z</time>
      </trkpt>
      <trkpt lat="45.3667450" lon="5.8245349">
        <ele>1375.00</ele>
        <time>1970-01-01T00:37:46.040Z</time>
      </trkpt>
      <trkpt lat="45.3667870" lon="5.8247552">
        <ele>1377.50</ele>
        <time>1970-01-01T00:38:45.089Z</time>
      </trkpt>
      <trkpt lat="45.3669243" lon="5.8249130">
        <ele>1384.50</ele>
        <time>1970-01-01T00:39:48.849Z</time>
      </trkpt>
      <trkpt lat="45.3670311" lon="5.8249669">
        <ele>1389.75</ele>
        <time>1970-01-01T00:40:31.694Z</time>
      </trkpt>
      <trkpt lat="45.3671951" lon="5.8249831">
        <ele>1397.75</ele>
        <time>1970-01-01T00:41:35.290Z</time>
      </trkpt>
      <trkpt lat="45.3673706" lon="5.8250818">
        <ele>1403.75</ele>
        <time>1970-01-01T00:42:43.570Z</time>
      </trkpt>
      <trkpt lat="45.3674927" lon="5.8253770">
        <ele>1401.75</ele>
        <time>1970-01-01T00:43:47.775Z</time>
      </trkpt>
      <trkpt lat="45.3676987" lon="5.8254199">
        <ele>1411.75</ele>
        <time>1970-01-01T00:44:47.485Z</time>
      </trkpt>
      <trkpt lat="45.3679085" lon="5.8254681">
        <ele>1425.00</ele>
        <time>1970-01-01T00:45:56.991Z</time>
      </trkpt>
      <trkpt lat="45.3680153" lon="5.8256078">
        <ele>1431.25</ele>
        <time>1970-01-01T00:46:47.537Z</time>
      </trkpt>
      <trkpt lat="45.3680878" lon="5.8257608">
        <ele>1436.25</ele>
        <time>1970-01-01T00:47:34.033Z</time>
      </trkpt>
      <trkpt lat="45.3681946" lon="5.8259988">
        <ele>1445.00</ele>
        <time>1970-01-01T00:48:46.346Z</time>
      </trkpt>
      <trkpt lat="45.3682785" lon="5.8262091">
        <ele>1451.25</ele>
        <time>1970-01-01T00:49:42.411Z</time>
      </trkpt>
      <trkpt lat="45.3683815" lon="5.8264818">
        <ele>1454.25</ele>
        <time>1970-01-01T00:50:50.478Z</time>
      </trkpt>
      <trkpt lat="45.3684921" lon="5.8262758">
        <ele>1460.00</ele>
        <time>1970-01-01T00:51:59.575Z</time>
      </trkpt>
      <trkpt lat="45.3686104" lon="5.8259988">
        <ele>1471.75</ele>
        <time>1970-01-01T00:53:10.749Z</time>
      </trkpt>
      <trkpt lat="45.3687553" lon="5.8254838">
        <ele>1483.75</ele>
        <time>1970-01-01T00:55:14.588Z</time>
      </trkpt>
      <trkpt lat="45.3690834" lon="5.8246369">
        <ele>1512.00</ele>
        <time>1970-01-01T00:59:36.178Z</time>
      </trkpt>
      <trkpt lat="45.3692627" lon="5.8243499">
        <ele>1526.50</ele>
        <time>1970-01-01T01:01:06.643Z</time>
      </trkpt>
      <trkpt lat="45.3693504" lon="5.8239880">
        <ele>1540.25</ele>
        <time>1970-01-01T01:02:46.670Z</time>
      </trkpt>
      <trkpt lat="45.3694077" lon="5.8237648">
        <ele>1549.00</ele>
        <time>1970-01-01T01:04:09.275Z</time>
      </trkpt>
      <trkpt lat="45.3694992" lon="5.8236570">
        <ele>1556.25</ele>
        <time>1970-01-01T01:06:30.939Z</time>
      </trkpt>
      <trkpt lat="45.3697205" lon="5.8237200">
        <ele>1562.75</ele>
        <time>1970-01-01T01:07:44.806Z</time>
      </trkpt>
      <trkpt lat="45.3698082" lon="5.8237209">
        <ele>1563.00</ele>
        <time>1970-01-01T01:08:10.397Z</time>
      </trkpt>
      <trkpt lat="45.3698845" lon="5.8235641">
        <ele>1571.00</ele>
        <time>1970-01-01T01:09:44.569Z</time>
      </trkpt>
      <trkpt lat="45.3699913" lon="5.8233638">
        <ele>1581.25</ele>
        <time>1970-01-01T01:10:49.762Z</time>
      </trkpt>
      <trkpt lat="45.3701782" lon="5.8232841">
        <ele>1587.00</ele>
        <time>1970-01-01T01:12:14.047Z</time>
      </trkpt>
      <trkpt lat="45.3702927" lon="5.8231359">
        <ele>1595.00</ele>
        <time>1970-01-01T01:13:59.800Z</time>
      </trkpt>
      <trkpt lat="45.3703957" lon="5.8230181">
        <ele>1601.50</ele>
        <time>1970-01-01T01:15:07.311Z</time>
      </trkpt>
      <trkpt lat="45.3705177" lon="5.8229852">
        <ele>1605.75</ele>
        <time>1970-01-01T01:16:11.456Z</time>
      </trkpt>
      <trkpt lat="45.3705940" lon="5.8229480">
        <ele>1609.00</ele>
        <time>1970-01-01T01:16:52.839Z</time>
      </trkpt>
      <trkpt lat="45.3707275" lon="5.8228211">
        <ele>1617.50</ele>
        <time>1970-01-01T01:18:11.221Z</time>
      </trkpt>
      <trkpt lat="45.3707924" lon="5.8226871">
        <ele>1623.00</ele>
        <time>1970-01-01T01:19:29.466Z</time>
      </trkpt>
      <trkpt lat="45.3708687" lon="5.8224821">
        <ele>1629.00</ele>
        <time>1970-01-01T01:20:11.768Z</time>
      </trkpt>
      <trkpt lat="45.3709221" lon="5.8220592">
        <ele>1630.25</ele>
        <time>1970-01-01T01:21:22.085Z</time>
      </trkpt>
      <trkpt lat="45.3710136" lon="5.8215890">
        <ele>1631.25</ele>
        <time>1970-01-01T01:22:26.063Z</time>
      </trkpt>
      <trkpt lat="45.3711929" lon="5.8212099">
        <ele>1633.25</ele>
        <time>1970-01-01T01:23:23.013Z</time>
      </trkpt>
      <trkpt lat="45.3713913" lon="5.8208790">
        <ele>1634.25</ele>
        <time>1970-01-01T01:24:14.463Z</time>
      </trkpt>
      <trkpt lat="45.3714180" lon="5.8206201">
        <ele>1633.50</ele>
        <time>1970-01-01T01:24:59.826Z</time>
      </trkpt>
      <trkpt lat="45.3713837" lon="5.8203282">
        <ele>1638.00</ele>
        <time>1970-01-01T01:25:55.679Z</time>
      </trkpt>
      <trkpt lat="45.3713303" lon="5.8200212">
        <ele>1645.00</ele>
        <time>1970-01-01T01:27:13.975Z</time>
      </trkpt>
      <trkpt lat="45.3713074" lon="5.8198628">
        <ele>1649.75</ele>
        <time>1970-01-01T01:28:05.212Z</time>
      </trkpt>
      <trkpt lat="45.3712883" lon="5.8196402">
        <ele>1657.25</ele>
        <time>1970-01-01T01:29:09.347Z</time>
      </trkpt>
      <trkpt lat="45.3712578" lon="5.8194528">
        <ele>1664.25</ele>
        <time>1970-01-01T01:30:23.389Z</time>
      </trkpt>
      <trkpt lat="45.3711739" lon="5.8192902">
        <ele>1670.00</ele>
        <time>1970-01-01T01:31:29.321Z</time>
      </trkpt>
      <trkpt lat="45.3710480" lon="5.8191228">
        <ele>1672.25</ele>
        <time>1970-01-01T01:32:45.344Z</time>
      </trkpt>
      <trkpt lat="45.3709946" lon="5.8190389">
        <ele>1672.50</ele>
        <time>1970-01-01T01:33:18.001Z</time>
      </trkpt>
      <trkpt lat="45.3709106" lon="5.8188200">
        <ele>1676.75</ele>
        <time>1970-01-01T01:34:31.383Z</time>
      </trkpt>
      <trkpt lat="45.3707199" lon="5.8186531">
        <ele>1674.00</ele>
        <time>1970-01-01T01:35:47.223Z</time>
      </trkpt>
      <trkpt lat="45.3705330" lon="5.8184791">
        <ele>1675.50</ele>
        <time>1970-01-01T01:36:59.198Z</time>
      </trkpt>
      <trkpt lat="45.3704071" lon="5.8183432">
        <ele>1680.00</ele>
        <time>1970-01-01T01:37:50.609Z</time>
      </trkpt>
      <trkpt lat="45.3702888" lon="5.8182120">
        <ele>1685.75</ele>
        <time>1970-01-01T01:38:54.909Z</time>
      </trkpt>
      <trkpt lat="45.3702011" lon="5.8181038">
        <ele>1692.50</ele>
        <time>1970-01-01T01:40:11.055Z</time>
      </trkpt>
      <trkpt lat="45.3701286" lon="5.8180189">
        <ele>1699.50</ele>
        <time>1970-01-01T01:41:02.910Z</time>
      </trkpt>
      <trkpt lat="45.3699951" lon="5.8179250">
        <ele>1705.50</ele>
        <time>1970-01-01T01:42:21.495Z</time>
      </trkpt>
      <trkpt lat="45.3699226" lon="5.8178358">
        <ele>1711.75</ele>
        <time>1970-01-01T01:43:16.045Z</time>
      </trkpt>
      <trkpt lat="45.3698845" lon="5.8176908">
        <ele>1724.50</ele>
        <time>1970-01-01T01:44:26.325Z</time>
      </trkpt>
      <trkpt lat="45.3699226" lon="5.8176198">
        <ele>1734.00</ele>
        <time>1970-01-01T01:46:17.973Z</time>
      </trkpt>
      <trkpt lat="45.3698807" lon="5.8175168">
        <ele>1740.75</ele>
        <time>1970-01-01T01:47:52.668Z</time>
      </trkpt>
      <trkpt lat="45.3697929" lon="5.8173881">
        <ele>1743.75</ele>
        <time>1970-01-01T01:49:43.161Z</time>
      </trkpt>
      <trkpt lat="45.3696938" lon="5.8172860">
        <ele>1744.75</ele>
        <time>1970-01-01T01:51:08.542Z</time>
      </trkpt>
      <trkpt lat="45.3696480" lon="5.8171272">
        <ele>1753.25</ele>
        <time>1970-01-01T01:52:51.203Z</time>
      </trkpt>
      <trkpt lat="45.3695793" lon="5.8170028">
        <ele>1757.25</ele>
        <time>1970-01-01T01:54:11.513Z</time>
      </trkpt>
      <trkpt lat="45.3696175" lon="5.8169479">
        <ele>1762.25</ele>
        <time>1970-01-01T01:54:58.837Z</time>
      </trkpt>
      <trkpt lat="45.3696747" lon="5.8168840">
        <ele>1769.25</ele>
        <time>1970-01-01T01:58:20.472Z</time>
      </trkpt>
      <trkpt lat="45.3696480" lon="5.8168011">
        <ele>1773.25</ele>
        <time>1970-01-01T01:59:04.922Z</time>
      </trkpt>
      <trkpt lat="45.3695793" lon="5.8166800">
        <ele>1777.25</ele>
        <time>1970-01-01T02:00:22.464Z</time>
      </trkpt>
      <trkpt lat="45.3695488" lon="5.8165789">
        <ele>1780.50</ele>
        <time>1970-01-01T02:01:13.218Z</time>
      </trkpt>
      <trkpt lat="45.3694954" lon="5.8164191">
        <ele>1784.25</ele>
        <time>1970-01-01T02:02:57.167Z</time>
      </trkpt>
      <trkpt lat="45.3693886" lon="5.8161831">
        <ele>1781.75</ele>
        <time>1970-01-01T02:04:08.866Z</time>
      </trkpt>
      <trkpt lat="45.3691330" lon="5.8159981">
        <ele>1776.00</ele>
        <time>1970-01-01T02:05:13.194Z</time>
      </trkpt>
      <trkpt lat="45.3687706" lon="5.8157778">
        <ele>1767.00</ele>
        <time>1970-01-01T02:06:11.844Z</time>
      </trkpt>
      <trkpt lat="45.3684082" lon="5.8154769">
        <ele>1760.50</ele>
        <time>1970-01-01T02:07:01.563Z</time>
      </trkpt>
      <trkpt lat="45.3680801" lon="5.8150711">
        <ele>1762.50</ele>
        <time>1970-01-01T02:07:54.651Z</time>
      </trkpt>
      <trkpt lat="45.3677330" lon="5.8147531">
        <ele>1767.50</ele>
        <time>1970-01-01T02:08:51.405Z</time>
      </trkpt>
      <trkpt lat="45.3672752" lon="5.8146210">
        <ele>1767.50</ele>
        <time>1970-01-01T02:09:49.034Z</time>
      </trkpt>
      <trkpt lat="45.3669014" lon="5.8144321">
        <ele>1770.75</ele>
        <time>1970-01-01T02:10:42.146Z</time>
      </trkpt>
      <trkpt lat="45.3666992" lon="5.8142838">
        <ele>1774.50</ele>
        <time>1970-01-01T02:11:15.215Z</time>
      </trkpt>
      <trkpt lat="45.3664703" lon="5.8139162">
        <ele>1785.25</ele>
        <time>1970-01-01T02:12:14.062Z</time>
      </trkpt>
      <trkpt lat="45.3663597" lon="5.8136220">
        <ele>1795.50</ele>
        <time>1970-01-01T02:13:11.608Z</time>
      </trkpt>
      <trkpt lat="45.3662148" lon="5.8133688">
        <ele>1799.50</ele>
        <time>1970-01-01T02:14:08.680Z</time>
      </trkpt>
      <trkpt lat="45.3659096" lon="5.8133259">
        <ele>1794.50</ele>
        <time>1970-01-01T02:15:09.182Z</time>
      </trkpt>
      <trkpt lat="45.3656044" lon="5.8131528">
        <ele>1794.50</ele>
        <time>1970-01-01T02:15:58.755Z</time>
      </trkpt>
      <trkpt lat="45.3658142" lon="5.8130269">
        <ele>1803.25</ele>
        <time>1970-01-01T02:17:18.343Z</time>
      </trkpt>
      <trkpt lat="45.3658638" lon="5.8130250">
        <ele>1803.75</ele>
        <time>1970-01-01T02:17:31.884Z</time>
      </trkpt>
      <trkpt lat="45.3661957" lon="5.8130770">
        <ele>1808.25</ele>
        <time>1970-01-01T02:18:36.628Z</time>
      </trkpt>
      <trkpt lat="45.3664589" lon="5.8131499">
        <ele>1816.25</ele>
        <time>1970-01-01T02:19:34.844Z</time>
      </trkpt>
      <trkpt lat="45.3666687" lon="5.8132138">
        <ele>1825.50</ele>
        <time>1970-01-01T02:20:37.084Z</time>
      </trkpt>
      <trkpt lat="45.3668633" lon="5.8131871">
        <ele>1835.75</ele>
        <time>1970-01-01T02:21:53.593Z</time>
      </trkpt>
      <trkpt lat="45.3669243" lon="5.8132110">
        <ele>1838.50</ele>
        <time>1970-01-01T02:22:16.508Z</time>
      </trkpt>
      <trkpt lat="45.3671074" lon="5.8131871">
        <ele>1847.00</ele>
        <time>1970-01-01T02:23:38.286Z</time>
      </trkpt>
      <trkpt lat="45.3671837" lon="5.8131142">
        <ele>1852.75</ele>
        <time>1970-01-01T02:24:25.096Z</time>
      </trkpt>
      <trkpt lat="45.3672371" lon="5.8129201">
        <ele>1858.00</ele>
        <time>1970-01-01T02:26:02.719Z</time>
      </trkpt>
      <trkpt lat="45.3673325" lon="5.8128190">
        <ele>1863.25</ele>
        <time>1970-01-01T02:27:42.054Z</time>
      </trkpt>
      <trkpt lat="45.3673935" lon="5.8127871">
        <ele>1867.00</ele>
        <time>1970-01-01T02:28:09.693Z</time>
      </trkpt>
      <trkpt lat="45.3675385" lon="5.8127632">
        <ele>1873.25</ele>
        <time>1970-01-01T02:29:19.710Z</time>
      </trkpt>
      <trkpt lat="45.3677025" lon="5.8127141">
        <ele>1875.75</ele>
        <time>1970-01-01T02:30:37.660Z</time>
      </trkpt>
      <trkpt lat="45.3678360" lon="5.8126359">
        <ele>1878.00</ele>
        <time>1970-01-01T02:31:46.323Z</time>
      </trkpt>
      <trkpt lat="45.3680191" lon="5.8125472">
        <ele>1884.25</ele>
        <time>1970-01-01T02:33:10.847Z</time>
      </trkpt>
      <trkpt lat="45.3682632" lon="5.8125281">
        <ele>1895.25</ele>
        <time>1970-01-01T02:35:10.567Z</time>
      </trkpt>
      <trkpt lat="45.3684120" lon="5.8125372">
        <ele>1901.00</ele>
        <time>1970-01-01T02:36:31.219Z</time>
      </trkpt>
      <trkpt lat="45.3685417" lon="5.8124971">
        <ele>1906.25</ele>
        <time>1970-01-01T02:37:37.846Z</time>
      </trkpt>
      <trkpt lat="45.3686943" lon="5.8124108">
        <ele>1910.00</ele>
        <time>1970-01-01T02:38:53.480Z</time>
      </trkpt>
      <trkpt lat="45.3688278" lon="5.8123980">
        <ele>1918.00</ele>
        <time>1970-01-01T02:40:03.961Z</time>
      </trkpt>
      <trkpt lat="45.3689728" lon="5.8123960">
        <ele>1928.50</ele>
        <time>1970-01-01T02:41:24.925Z</time>
      </trkpt>
      <trkpt lat="45.3691292" lon="5.8124499">
        <ele>1942.00</ele>
        <time>1970-01-01T02:43:35.159Z</time>
      </trkpt>
      <trkpt lat="45.3691750" lon="5.8124218">
        <ele>1945.25</ele>
        <time>1970-01-01T02:44:15.887Z</time>
      </trkpt>
      <trkpt lat="45.3693008" lon="5.8124681">
        <ele>1954.75</ele>
        <time>1970-01-01T02:46:08.751Z</time>
      </trkpt>
      <trkpt lat="45.3693848" lon="5.8123202">
        <ele>1960.50</ele>
        <time>1970-01-01T02:48:01.387Z</time>
      </trkpt>
      <trkpt lat="45.3695183" lon="5.8123202">
        <ele>1969.50</ele>
        <time>1970-01-01T02:49:56.889Z</time>
      </trkpt>
      <trkpt lat="45.3696175" lon="5.8122358">
        <ele>1977.25</ele>
        <time>1970-01-01T02:51:44.737Z</time>
      </trkpt>
      <trkpt lat="45.3697395" lon="5.8121920">
        <ele>1984.00</ele>
        <time>1970-01-01T02:53:49.337Z</time>
      </trkpt>
      <trkpt lat="45.3698273" lon="5.8121738">
        <ele>1987.50</ele>
        <time>1970-01-01T02:55:11.489Z</time>
      </trkpt>
      <trkpt lat="45.3699646" lon="5.8121138">
        <ele>1991.75</ele>
        <time>1970-01-01T02:57:11.578Z</time>
      </trkpt>
      <trkpt lat="45.3700752" lon="5.8120642">
        <ele>1995.75</ele>
        <time>1970-01-01T02:58:40.199Z</time>
      </trkpt>
      <trkpt lat="45.3702087" lon="5.8121190">
        <ele>2004.50</ele>
        <time>1970-01-01T03:00:34.725Z</time>
      </trkpt>
      <trkpt lat="45.3703384" lon="5.8120561">
        <ele>2008.50</ele>
        <time>1970-01-01T03:02:27.570Z</time>
      </trkpt>
      <trkpt lat="45.3704224" lon="5.8120070">
        <ele>2010.00</ele>
        <time>1970-01-01T03:03:33.517Z</time>
      </trkpt>
      <trkpt lat="45.3705864" lon="5.8120551">
        <ele>2014.75</ele>
        <time>1970-01-01T03:04:48.057Z</time>
      </trkpt>
      <trkpt lat="45.3707504" lon="5.8120618">
        <ele>2015.75</ele>
        <time>1970-01-01T03:05:48.012Z</time>
      </trkpt>
      <trkpt lat="45.3709717" lon="5.8120451">
        <ele>2015.00</ele>
        <time>1970-01-01T03:06:55.144Z</time>
      </trkpt>
      <trkpt lat="45.3712463" lon="5.8120542">
        <ele>2013.00</ele>
        <time>1970-01-01T03:08:00.546Z</time>
      </trkpt>
      <trkpt lat="45.3714867" lon="5.8123560">
        <ele>2010.00</ele>
        <time>1970-01-01T03:09:05.094Z</time>
      </trkpt>
      <trkpt lat="45.3718834" lon="5.8125992">
        <ele>2000.50</ele>
        <time>1970-01-01T03:10:03.507Z</time>
      </trkpt>
      <trkpt lat="45.3723030" lon="5.8129678">
        <ele>1986.50</ele>
        <time>1970-01-01T03:11:03.135Z</time>
      </trkpt>
      <trkpt lat="45.3726730" lon="5.8132768">
        <ele>1970.75</ele>
        <time>1970-01-01T03:12:04.902Z</time>
      </trkpt>
      <trkpt lat="45.3728180" lon="5.8133731">
        <ele>1965.75</ele>
        <time>1970-01-01T03:12:32.622Z</time>
      </trkpt>
      <trkpt lat="45.3731918" lon="5.8133049">
        <ele>1961.50</ele>
        <time>1970-01-01T03:13:35.926Z</time>
      </trkpt>
      <trkpt lat="45.3735924" lon="5.8132920">
        <ele>1961.50</ele>
        <time>1970-01-01T03:14:26.944Z</time>
      </trkpt>
      <trkpt lat="45.3740692" lon="5.8132610">
        <ele>1959.25</ele>
        <time>1970-01-01T03:15:21.407Z</time>
      </trkpt>
      <trkpt lat="45.3744965" lon="5.8131962">
        <ele>1956.00</ele>
        <time>1970-01-01T03:16:08.522Z</time>
      </trkpt>
      <trkpt lat="45.3749542" lon="5.8132110">
        <ele>1949.50</ele>
        <time>1970-01-01T03:16:59.986Z</time>
      </trkpt>
      <trkpt lat="45.3753662" lon="5.8132510">
        <ele>1941.00</ele>
        <time>1970-01-01T03:17:54.976Z</time>
      </trkpt>
      <trkpt lat="45.3757401" lon="5.8134151">
        <ele>1935.75</ele>
        <time>1970-01-01T03:18:41.886Z</time>
      </trkpt>
      <trkpt lat="45.3762474" lon="5.8135738">
        <ele>1926.25</ele>
        <time>1970-01-01T03:19:40.517Z</time>
      </trkpt>
      <trkpt lat="45.3765335" lon="5.8139272">
        <ele>1917.50</ele>
        <time>1970-01-01T03:20:29.104Z</time>
      </trkpt>
      <trkpt lat="45.3767662" lon="5.8142538">
        <ele>1903.25</ele>
        <time>1970-01-01T03:21:25.817Z</time>
      </trkpt>
      <trkpt lat="45.3769455" lon="5.8144951">
        <ele>1895.25</ele>
        <time>1970-01-01T03:22:14.071Z</time>
      </trkpt>
      <trkpt lat="45.3772011" lon="5.8146968">
        <ele>1887.00</ele>
        <time>1970-01-01T03:23:11.808Z</time>
      </trkpt>
      <trkpt lat="45.3774681" lon="5.8147969">
        <ele>1879.50</ele>
        <time>1970-01-01T03:24:07.425Z</time>
      </trkpt>
      <trkpt lat="45.3777122" lon="5.8148122">
        <ele>1873.25</ele>
        <time>1970-01-01T03:24:52.270Z</time>
      </trkpt>
      <trkpt lat="45.3779259" lon="5.8148451">
        <ele>1867.00</ele>
        <time>1970-01-01T03:25:35.260Z</time>
      </trkpt>
      <trkpt lat="45.3781738" lon="5.8148150">
        <ele>1863.25</ele>
        <time>1970-01-01T03:26:19.888Z</time>
      </trkpt>
      <trkpt lat="45.3785973" lon="5.8146672">
        <ele>1859.50</ele>
        <time>1970-01-01T03:27:20.624Z</time>
      </trkpt>
      <trkpt lat="45.3790398" lon="5.8147068">
        <ele>1856.25</ele>
        <time>1970-01-01T03:28:17.306Z</time>
      </trkpt>
      <trkpt lat="45.3794518" lon="5.8149419">
        <ele>1851.50</ele>
        <time>1970-01-01T03:29:03.329Z</time>
      </trkpt>
      <trkpt lat="45.3798141" lon="5.8149800">
        <ele>1846.50</ele>
        <time>1970-01-01T03:30:02.207Z</time>
      </trkpt>
      <trkpt lat="45.3802834" lon="5.8150749">
        <ele>1838.50</ele>
        <time>1970-01-01T03:30:57.837Z</time>
      </trkpt>
      <trkpt lat="45.3806648" lon="5.8152890">
        <ele>1833.00</ele>
        <time>1970-01-01T03:31:43.377Z</time>
      </trkpt>
      <trkpt lat="45.3811913" lon="5.8153620">
        <ele>1826.25</ele>
        <time>1970-01-01T03:32:39.920Z</time>
      </trkpt>
      <trkpt lat="45.3816261" lon="5.8156271">
        <ele>1816.00</ele>
        <time>1970-01-01T03:33:32.486Z</time>
      </trkpt>
      <trkpt lat="45.3820076" lon="5.8157558">
        <ele>1802.50</ele>
        <time>1970-01-01T03:34:27.122Z</time>
      </trkpt>
      <trkpt lat="45.3823357" lon="5.8159361">
        <ele>1791.75</ele>
        <time>1970-01-01T03:35:19.705Z</time>
      </trkpt>
      <trkpt lat="45.3826256" lon="5.8159871">
        <ele>1778.50</ele>
        <time>1970-01-01T03:36:09.586Z</time>
      </trkpt>
      <trkpt lat="45.3829041" lon="5.8161368">
        <ele>1765.00</ele>
        <time>1970-01-01T03:37:14.844Z</time>
      </trkpt>
      <trkpt lat="45.3830719" lon="5.8160968">
        <ele>1753.50</ele>
        <time>1970-01-01T03:38:13.570Z</time>
      </trkpt>
      <trkpt lat="45.3833084" lon="5.8161612">
        <ele>1740.25</ele>
        <time>1970-01-01T03:39:26.380Z</time>
      </trkpt>
      <trkpt lat="45.3833923" lon="5.8161540">
        <ele>1734.75</ele>
        <time>1970-01-01T03:39:48.969Z</time>
      </trkpt>
      <trkpt lat="45.3835869" lon="5.8161540">
        <ele>1723.75</ele>
        <time>1970-01-01T03:41:03.776Z</time>
      </trkpt>
      <trkpt lat="45.3837318" lon="5.8159399">
        <ele>1710.25</ele>
        <time>1970-01-01T03:42:14.800Z</time>
      </trkpt>
      <trkpt lat="45.3837967" lon="5.8156261">
        <ele>1696.00</ele>
        <time>1970-01-01T03:43:23.606Z</time>
      </trkpt>
      <trkpt lat="45.3836937" lon="5.8154058">
        <ele>1691.00</ele>
        <time>1970-01-01T03:44:21.797Z</time>
      </trkpt>
      <trkpt lat="45.3836708" lon="5.8150640">
        <ele>1679.50</ele>
        <time>1970-01-01T03:45:24.307Z</time>
      </trkpt>
      <trkpt lat="45.3837662" lon="5.8149209">
        <ele>1673.00</ele>
        <time>1970-01-01T03:45:59.657Z</time>
      </trkpt>
      <trkpt lat="45.3839607" lon="5.8147221">
        <ele>1663.75</ele>
        <time>1970-01-01T03:47:07.923Z</time>
      </trkpt>
      <trkpt lat="45.3841362" lon="5.8146539">
        <ele>1657.75</ele>
        <time>1970-01-01T03:48:01.167Z</time>
      </trkpt>
      <trkpt lat="45.3843346" lon="5.8144588">
        <ele>1648.75</ele>
        <time>1970-01-01T03:49:08.188Z</time>
      </trkpt>
      <trkpt lat="45.3845024" lon="5.8141899">
        <ele>1643.25</ele>
        <time>1970-01-01T03:50:10.716Z</time>
      </trkpt>
      <trkpt lat="45.3847084" lon="5.8145161">
        <ele>1638.25</ele>
        <time>1970-01-01T03:51:16.594Z</time>
      </trkpt>
      <trkpt lat="45.3848839" lon="5.8150401">
        <ele>1634.50</ele>
        <time>1970-01-01T03:52:03.670Z</time>
      </trkpt>
      <trkpt lat="45.3849068" lon="5.8157439">
        <ele>1637.75</ele>
        <time>1970-01-01T03:53:03.348Z</time>
      </trkpt>
      <trkpt lat="45.3849220" lon="5.8162880">
        <ele>1646.75</ele>
        <time>1970-01-01T03:54:01.915Z</time>
      </trkpt>
      <trkpt lat="45.3849869" lon="5.8166332">
        <ele>1651.75</ele>
        <time>1970-01-01T03:54:41.129Z</time>
      </trkpt>
      <trkpt lat="45.3851433" lon="5.8171830">
        <ele>1668.50</ele>
        <time>1970-01-01T03:56:17.893Z</time>
      </trkpt>
      <trkpt lat="45.3852692" lon="5.8175468">
        <ele>1684.50</ele>
        <time>1970-01-01T03:57:43.693Z</time>
      </trkpt>
      <trkpt lat="45.3854141" lon="5.8178730">
        <ele>1698.50</ele>
        <time>1970-01-01T03:59:19.864Z</time>
      </trkpt>
      <trkpt lat="45.3856697" lon="5.8180499">
        <ele>1698.75</ele>
        <time>1970-01-01T04:00:37.081Z</time>
      </trkpt>
      <trkpt lat="45.3859711" lon="5.8182740">
        <ele>1703.00</ele>
        <time>1970-01-01T04:01:58.830Z</time>
      </trkpt>
      <trkpt lat="45.3861275" lon="5.8185349">
        <ele>1715.50</ele>
        <time>1970-01-01T04:03:08.976Z</time>
      </trkpt>
      <trkpt lat="45.3863678" lon="5.8186479">
        <ele>1716.50</ele>
        <time>1970-01-01T04:04:09.608Z</time>
      </trkpt>
      <trkpt lat="45.3865051" lon="5.8189340">
        <ele>1731.75</ele>
        <time>1970-01-01T04:05:22.655Z</time>
      </trkpt>
      <trkpt lat="45.3865776" lon="5.8190918">
        <ele>1738.75</ele>
        <time>1970-01-01T04:06:08.426Z</time>
      </trkpt>
      <trkpt lat="45.3865662" lon="5.8193402">
        <ele>1742.00</ele>
        <time>1970-01-01T04:07:48.891Z</time>
      </trkpt>
      <trkpt lat="45.3865585" lon="5.8195238">
        <ele>1737.75</ele>
        <time>1970-01-01T04:09:03.733Z</time>
      </trkpt>
      <trkpt lat="45.3865662" lon="5.8197589">
        <ele>1725.50</ele>
        <time>1970-01-01T04:10:02.455Z</time>
      </trkpt>
      <trkpt lat="45.3866119" lon="5.8200951">
        <ele>1702.00</ele>
        <time>1970-01-01T04:11:09.231Z</time>
      </trkpt>
      <trkpt lat="45.3866272" lon="5.8203182">
        <ele>1687.25</ele>
        <time>1970-01-01T04:12:34.150Z</time>
      </trkpt>
      <trkpt lat="45.3865547" lon="5.8205361">
        <ele>1672.75</ele>
        <time>1970-01-01T04:13:43.286Z</time>
      </trkpt>
      <trkpt lat="45.3863678" lon="5.8206511">
        <ele>1667.50</ele>
        <time>1970-01-01T04:14:44.740Z</time>
      </trkpt>
      <trkpt lat="45.3864403" lon="5.8208561">
        <ele>1649.00</ele>
        <time>1970-01-01T04:15:56.533Z</time>
      </trkpt>
      <trkpt lat="45.3864288" lon="5.8209939">
        <ele>1638.25</ele>
        <time>1970-01-01T04:16:53.262Z</time>
      </trkpt>
      <trkpt lat="45.3862762" lon="5.8211160">
        <ele>1636.00</ele>
        <time>1970-01-01T04:18:16.415Z</time>
      </trkpt>
      <trkpt lat="45.3862343" lon="5.8212752">
        <ele>1628.25</ele>
        <time>1970-01-01T04:19:45.968Z</time>
      </trkpt>
      <trkpt lat="45.3863449" lon="5.8213568">
        <ele>1617.75</ele>
        <time>1970-01-01T04:21:40.894Z</time>
      </trkpt>
      <trkpt lat="45.3863869" lon="5.8214388">
        <ele>1611.50</ele>
        <time>1970-01-01T04:23:16.138Z</time>
      </trkpt>
      <trkpt lat="45.3864212" lon="5.8215332">
        <ele>1605.50</ele>
        <time>1970-01-01T04:24:26.551Z</time>
      </trkpt>
      <trkpt lat="45.3864670" lon="5.8217010">
        <ele>1595.50</ele>
        <time>1970-01-01T04:26:03.165Z</time>
      </trkpt>
      <trkpt lat="45.3865318" lon="5.8218722">
        <ele>1584.50</ele>
        <time>1970-01-01T04:27:17.327Z</time>
      </trkpt>
      <trkpt lat="45.3865433" lon="5.8220100">
        <ele>1576.75</ele>
        <time>1970-01-01T04:29:06.532Z</time>
      </trkpt>
      <trkpt lat="45.3866272" lon="5.8221312">
        <ele>1569.25</ele>
        <time>1970-01-01T04:30:47.021Z</time>
      </trkpt>
      <trkpt lat="45.3865509" lon="5.8223009">
        <ele>1560.25</ele>
        <time>1970-01-01T04:32:27.141Z</time>
      </trkpt>
      <trkpt lat="45.3865356" lon="5.8224239">
        <ele>1553.25</ele>
        <time>1970-01-01T04:33:49.566Z</time>
      </trkpt>
      <trkpt lat="45.3865509" lon="5.8225870">
        <ele>1544.75</ele>
        <time>1970-01-01T04:35:10.519Z</time>
      </trkpt>
      <trkpt lat="45.3865738" lon="5.8227682">
        <ele>1535.75</ele>
        <time>1970-01-01T04:36:39.036Z</time>
      </trkpt>
      <trkpt lat="45.3864899" lon="5.8228979">
        <ele>1523.00</ele>
        <time>1970-01-01T04:37:42.275Z</time>
      </trkpt>
      <trkpt lat="45.3863144" lon="5.8226752">
        <ele>1528.25</ele>
        <time>1970-01-01T04:38:55.426Z</time>
      </trkpt>
      <trkpt lat="45.3861694" lon="5.8227038">
        <ele>1520.50</ele>
        <time>1970-01-01T04:40:29.551Z</time>
      </trkpt>
      <trkpt lat="45.3861618" lon="5.8228588">
        <ele>1508.50</ele>
        <time>1970-01-01T04:42:00.044Z</time>
      </trkpt>
      <trkpt lat="45.3861160" lon="5.8229861">
        <ele>1497.00</ele>
        <time>1970-01-01T04:43:19.593Z</time>
      </trkpt>
      <trkpt lat="45.3860970" lon="5.8231258">
        <ele>1488.00</ele>
        <time>1970-01-01T04:44:50.134Z</time>
      </trkpt>
      <trkpt lat="45.3860855" lon="5.8232989">
        <ele>1478.50</ele>
        <time>1970-01-01T04:46:19.408Z</time>
      </trkpt>
      <trkpt lat="45.3861237" lon="5.8233681">
        <ele>1475.75</ele>
        <time>1970-01-01T04:46:38.846Z</time>
      </trkpt>
      <trkpt lat="45.3861008" lon="5.8235240">
        <ele>1467.00</ele>
        <time>1970-01-01T04:48:12.658Z</time>
      </trkpt>
      <trkpt lat="45.3859673" lon="5.8235211">
        <ele>1464.50</ele>
        <time>1970-01-01T04:48:48.125Z</time>
      </trkpt>
      <trkpt lat="45.3860016" lon="5.8236818">
        <ele>1456.50</ele>
        <time>1970-01-01T04:49:56.563Z</time>
      </trkpt>
      <trkpt lat="45.3861771" lon="5.8238082">
        <ele>1453.50</ele>
        <time>1970-01-01T04:50:45.696Z</time>
      </trkpt>
      <trkpt lat="45.3863411" lon="5.8238912">
        <ele>1450.25</ele>
        <time>1970-01-01T04:51:30.389Z</time>
      </trkpt>
      <trkpt lat="45.3860054" lon="5.8239808">
        <ele>1441.25</ele>
        <time>1970-01-01T04:53:00.490Z</time>
      </trkpt>
      <trkpt lat="45.3857307" lon="5.8239312">
        <ele>1436.50</ele>
        <time>1970-01-01T04:54:04.958Z</time>
      </trkpt>
      <trkpt lat="45.3854637" lon="5.8236771">
        <ele>1439.25</ele>
        <time>1970-01-01T04:55:03.945Z</time>
      </trkpt>
      <trkpt lat="45.3852272" lon="5.8237462">
        <ele>1429.50</ele>
        <time>1970-01-01T04:55:54.907Z</time>
      </trkpt>
      <trkpt lat="45.3843384" lon="5.8236728">
        <ele>1412.50</ele>
        <time>1970-01-01T04:59:20.794Z</time>
      </trkpt>
      <trkpt lat="45.3841476" lon="5.8235769">
        <ele>1412.00</ele>
        <time>1970-01-01T04:59:54.404Z</time>
      </trkpt>
      <trkpt lat="45.3833313" lon="5.8235888">
        <ele>1392.50</ele>
        <time>1970-01-01T05:02:54.242Z</time>
      </trkpt>
      <trkpt lat="45.3831100" lon="5.8235021">
        <ele>1390.25</ele>
        <time>1970-01-01T05:03:34.960Z</time>
      </trkpt>
      <trkpt lat="45.3831482" lon="5.8237801">
        <ele>1382.75</ele>
        <time>1970-01-01T05:04:32.545Z</time>
      </trkpt>
      <trkpt lat="45.3833733" lon="5.8239999">
        <ele>1380.50</ele>
        <time>1970-01-01T05:05:21.188Z</time>
      </trkpt>
      <trkpt lat="45.3834724" lon="5.8242149">
        <ele>1376.50</ele>
        <time>1970-01-01T05:05:54.300Z</time>
      </trkpt>
      <trkpt lat="45.3835678" lon="5.8245468">
        <ele>1372.50</ele>
        <time>1970-01-01T05:06:44.624Z</time>
      </trkpt>
      <trkpt lat="45.3836784" lon="5.8252411">
        <ele>1372.50</ele>
        <time>1970-01-01T05:07:41.893Z</time>
      </trkpt>
      <trkpt lat="45.3838272" lon="5.8258309">
        <ele>1374.50</ele>
        <time>1970-01-01T05:08:28.615Z</time>
      </trkpt>
      <trkpt lat="45.3840027" lon="5.8264332">
        <ele>1366.00</ele>
        <time>1970-01-01T05:09:12.791Z</time>
      </trkpt>
      <trkpt lat="45.3841133" lon="5.8270102">
        <ele>1351.50</ele>
        <time>1970-01-01T05:09:59.615Z</time>
      </trkpt>
      <trkpt lat="45.3838730" lon="5.8274808">
        <ele>1361.25</ele>
        <time>1970-01-01T05:11:00.837Z</time>
      </trkpt>
      <trkpt lat="45.3835869" lon="5.8273759">
        <ele>1371.00</ele>
        <time>1970-01-01T05:12:09.536Z</time>
      </trkpt>
      <trkpt lat="45.3832283" lon="5.8270879">
        <ele>1376.50</ele>
        <time>1970-01-01T05:13:02.995Z</time>
      </trkpt>
      <trkpt lat="45.3827858" lon="5.8267999">
        <ele>1382.25</ele>
        <time>1970-01-01T05:14:09.266Z</time>
      </trkpt>
      <trkpt lat="45.3824577" lon="5.8263679">
        <ele>1382.25</ele>
        <time>1970-01-01T05:15:07.064Z</time>
      </trkpt>
      <trkpt lat="45.3821068" lon="5.8260670">
        <ele>1384.50</ele>
        <time>1970-01-01T05:15:55.424Z</time>
      </trkpt>
      <trkpt lat="45.3818321" lon="5.8256602">
        <ele>1388.50</ele>
        <time>1970-01-01T05:16:48.623Z</time>
      </trkpt>
      <trkpt lat="45.3814354" lon="5.8253670">
        <ele>1388.75</ele>
        <time>1970-01-01T05:17:39.245Z</time>
      </trkpt>
      <trkpt lat="45.3809471" lon="5.8251209">
        <ele>1391.00</ele>
        <time>1970-01-01T05:18:37.726Z</time>
      </trkpt>
      <trkpt lat="45.3805542" lon="5.8250580">
        <ele>1395.00</ele>
        <time>1970-01-01T05:19:27.328Z</time>
      </trkpt>
      <trkpt lat="45.3801079" lon="5.8251991">
        <ele>1401.50</ele>
        <time>1970-01-01T05:20:26.816Z</time>
      </trkpt>
      <trkpt lat="45.3797798" lon="5.8251319">
        <ele>1405.00</ele>
        <time>1970-01-01T05:21:11.495Z</time>
      </trkpt>
      <trkpt lat="45.3793945" lon="5.8249989">
        <ele>1410.50</ele>
        <time>1970-01-01T05:22:10.328Z</time>
      </trkpt>
      <trkpt lat="45.3791504" lon="5.8247981">
        <ele>1417.00</ele>
        <time>1970-01-01T05:22:52.366Z</time>
      </trkpt>
      <trkpt lat="45.3789597" lon="5.8245301">
        <ele>1419.25</ele>
        <time>1970-01-01T05:23:33.241Z</time>
      </trkpt>
      <trkpt lat="45.3787804" lon="5.8244252">
        <ele>1421.25</ele>
        <time>1970-01-01T05:24:00.940Z</time>
      </trkpt>
      <trkpt lat="45.3783760" lon="5.8242202">
        <ele>1424.25</ele>
        <time>1970-01-01T05:25:00.777Z</time>
      </trkpt>
      <trkpt lat="45.3780174" lon="5.8240199">
        <ele>1426.50</ele>
        <time>1970-01-01T05:25:52.705Z</time>
      </trkpt>
      <trkpt lat="45.3776550" lon="5.8239422">
        <ele>1433.00</ele>
        <time>1970-01-01T05:26:45.085Z</time>
      </trkpt>
      <trkpt lat="45.3774986" lon="5.8239021">
        <ele>1435.50</ele>
        <time>1970-01-01T05:27:11.468Z</time>
      </trkpt>
      <trkpt lat="45.3772392" lon="5.8237062">
        <ele>1439.50</ele>
        <time>1970-01-01T05:27:56.987Z</time>
      </trkpt>
      <trkpt lat="45.3775520" lon="5.8232741">
        <ele>1442.25</ele>
        <time>1970-01-01T05:28:56.664Z</time>
      </trkpt>
      <trkpt lat="45.3779411" lon="5.8230600">
        <ele>1449.00</ele>
        <time>1970-01-01T05:29:44.221Z</time>
      </trkpt>
      <trkpt lat="45.3782883" lon="5.8229709">
        <ele>1448.75</ele>
        <time>1970-01-01T05:30:22.269Z</time>
      </trkpt>
      <trkpt lat="45.3784142" lon="5.8226042">
        <ele>1457.25</ele>
        <time>1970-01-01T05:31:11.209Z</time>
      </trkpt>
      <trkpt lat="45.3782883" lon="5.8224430">
        <ele>1465.00</ele>
        <time>1970-01-01T05:32:22.796Z</time>
      </trkpt>
      <trkpt lat="45.3779030" lon="5.8226552">
        <ele>1466.25</ele>
        <time>1970-01-01T05:33:18.736Z</time>
      </trkpt>
      <trkpt lat="45.3775063" lon="5.8227029">
        <ele>1471.50</ele>
        <time>1970-01-01T05:34:12.472Z</time>
      </trkpt>
      <trkpt lat="45.3770714" lon="5.8225722">
        <ele>1483.50</ele>
        <time>1970-01-01T05:35:31.023Z</time>
      </trkpt>
      <trkpt lat="45.3767662" lon="5.8226099">
        <ele>1485.75</ele>
        <time>1970-01-01T05:36:20.974Z</time>
      </trkpt>
      <trkpt lat="45.3763695" lon="5.8229909">
        <ele>1484.75</ele>
        <time>1970-01-01T05:37:21.858Z</time>
      </trkpt>
      <trkpt lat="45.3760948" lon="5.8233280">
        <ele>1492.75</ele>
        <time>1970-01-01T05:38:12.447Z</time>
      </trkpt>
      <trkpt lat="45.3759842" lon="5.8236871">
        <ele>1501.00</ele>
        <time>1970-01-01T05:39:02.786Z</time>
      </trkpt>
      <trkpt lat="45.3761864" lon="5.8240929">
        <ele>1504.75</ele>
        <time>1970-01-01T05:40:01.980Z</time>
      </trkpt>
      <trkpt lat="45.3764648" lon="5.8244328">
        <ele>1507.75</ele>
        <time>1970-01-01T05:40:57.186Z</time>
      </trkpt>
      <trkpt lat="45.3766518" lon="5.8248940">
        <ele>1517.75</ele>
        <time>1970-01-01T05:42:00.360Z</time>
      </trkpt>
      <trkpt lat="45.3767204" lon="5.8253579">
        <ele>1526.25</ele>
        <time>1970-01-01T05:43:05.523Z</time>
      </trkpt>
      <trkpt lat="45.3767052" lon="5.8258471">
        <ele>1531.75</ele>
        <time>1970-01-01T05:44:07.025Z</time>
      </trkpt>
      <trkpt lat="45.3767204" lon="5.8262110">
        <ele>1537.75</ele>
        <time>1970-01-01T05:44:55.948Z</time>
      </trkpt>
      <trkpt lat="45.3767967" lon="5.8263860">
        <ele>1539.75</ele>
        <time>1970-01-01T05:45:21.251Z</time>
      </trkpt>
      <trkpt lat="45.3769493" lon="5.8266888">
        <ele>1546.25</ele>
        <time>1970-01-01T05:46:11.108Z</time>
      </trkpt>
      <trkpt lat="45.3773193" lon="5.8272228">
        <ele>1552.75</ele>
        <time>1970-01-01T05:47:46.970Z</time>
      </trkpt>
      <trkpt lat="45.3774796" lon="5.8274179">
        <ele>1554.00</ele>
        <time>1970-01-01T05:48:18.595Z</time>
      </trkpt>
      <trkpt lat="45.3776207" lon="5.8277431">
        <ele>1556.25</ele>
        <time>1970-01-01T05:49:02.522Z</time>
      </trkpt>
      <trkpt lat="45.3772469" lon="5.8276010">
        <ele>1555.50</ele>
        <time>1970-01-01T05:50:06.419Z</time>
      </trkpt>
      <trkpt lat="45.3768425" lon="5.8275261">
        <ele>1549.75</ele>
        <time>1970-01-01T05:50:58.530Z</time>
      </trkpt>
      <trkpt lat="45.3765030" lon="5.8273540">
        <ele>1541.75</ele>
        <time>1970-01-01T05:51:37.569Z</time>
      </trkpt>
      <trkpt lat="45.3763123" lon="5.8273029">
        <ele>1535.50</ele>
        <time>1970-01-01T05:51:58.274Z</time>
      </trkpt>
      <trkpt lat="45.3759232" lon="5.8270402">
        <ele>1525.50</ele>
        <time>1970-01-01T05:52:57.238Z</time>
      </trkpt>
      <trkpt lat="45.3756752" lon="5.8264122">
        <ele>1525.50</ele>
        <time>1970-01-01T05:53:56.694Z</time>
      </trkpt>
      <trkpt lat="45.3753586" lon="5.8263431">
        <ele>1515.00</ele>
        <time>1970-01-01T05:54:42.251Z</time>
      </trkpt>
      <trkpt lat="45.3748322" lon="5.8263531">
        <ele>1490.50</ele>
        <time>1970-01-01T05:56:40.005Z</time>
      </trkpt>
      <trkpt lat="45.3750534" lon="5.8264928">
        <ele>1494.00</ele>
        <time>1970-01-01T05:57:18.859Z</time>
      </trkpt>
      <trkpt lat="45.3753510" lon="5.8268852">
        <ele>1494.75</ele>
        <time>1970-01-01T05:58:05.799Z</time>
      </trkpt>
      <trkpt lat="45.3753281" lon="5.8274102">
        <ele>1485.00</ele>
        <time>1970-01-01T05:58:54.382Z</time>
      </trkpt>
      <trkpt lat="45.3754807" lon="5.8279572">
        <ele>1477.75</ele>
        <time>1970-01-01T05:59:53.889Z</time>
      </trkpt>
      <trkpt lat="45.3757782" lon="5.8282900">
        <ele>1468.25</ele>
        <time>1970-01-01T06:00:48.857Z</time>
      </trkpt>
      <trkpt lat="45.3760567" lon="5.8284831">
        <ele>1463.75</ele>
        <time>1970-01-01T06:01:35.638Z</time>
      </trkpt>
      <trkpt lat="45.3763809" lon="5.8289180">
        <ele>1459.50</ele>
        <time>1970-01-01T06:02:38.743Z</time>
      </trkpt>
      <trkpt lat="45.3764381" lon="5.8292179">
        <ele>1455.50</ele>
        <time>1970-01-01T06:03:07.932Z</time>
      </trkpt>
      <trkpt lat="45.3764458" lon="5.8297439">
        <ele>1447.50</ele>
        <time>1970-01-01T06:04:02.995Z</time>
      </trkpt>
      <trkpt lat="45.3765411" lon="5.8300600">
        <ele>1448.75</ele>
        <time>1970-01-01T06:04:32.513Z</time>
      </trkpt>
      <trkpt lat="45.3766022" lon="5.8305268">
        <ele>1442.75</ele>
        <time>1970-01-01T06:05:14.261Z</time>
      </trkpt>
      <trkpt lat="45.3764496" lon="5.8305159">
        <ele>1433.25</ele>
        <time>1970-01-01T06:06:31.818Z</time>
      </trkpt>
      <trkpt lat="45.3761444" lon="5.8301301">
        <ele>1421.25</ele>
        <time>1970-01-01T06:07:36.872Z</time>
      </trkpt>
      <trkpt lat="45.3760185" lon="5.8298969">
        <ele>1417.25</ele>
        <time>1970-01-01T06:08:08.034Z</time>
      </trkpt>
      <trkpt lat="45.3757668" lon="5.8293948">
        <ele>1412.00</ele>
        <time>1970-01-01T06:09:10.854Z</time>
      </trkpt>
      <trkpt lat="45.3749275" lon="5.8292499">
        <ele>1389.50</ele>
        <time>1970-01-01T06:11:49.226Z</time>
      </trkpt>
      <trkpt lat="45.3747864" lon="5.8291721">
        <ele>1389.75</ele>
        <time>1970-01-01T06:12:09.096Z</time>
      </trkpt>
      <trkpt lat="45.3742027" lon="5.8283920">
        <ele>1386.25</ele>
        <time>1970-01-01T06:13:44.154Z</time>
      </trkpt>
      <trkpt lat="45.3739281" lon="5.8280778">
        <ele>1383.75</ele>
        <time>1970-01-01T06:14:25.367Z</time>
      </trkpt>
      <trkpt lat="45.3734856" lon="5.8278642">
        <ele>1378.25</ele>
        <time>1970-01-01T06:15:17.867Z</time>
      </trkpt>
      <trkpt lat="45.3732071" lon="5.8280430">
        <ele>1364.75</ele>
        <time>1970-01-01T06:16:02.818Z</time>
      </trkpt>
      <trkpt lat="45.3731232" lon="5.8283620">
        <ele>1350.00</ele>
        <time>1970-01-01T06:16:52.359Z</time>
      </trkpt>
      <trkpt lat="45.3730965" lon="5.8286390">
        <ele>1336.50</ele>
        <time>1970-01-01T06:17:59.226Z</time>
      </trkpt>
      <trkpt lat="45.3728714" lon="5.8287220">
        <ele>1330.00</ele>
        <time>1970-01-01T06:19:01.527Z</time>
      </trkpt>
      <trkpt lat="45.3727226" lon="5.8289070">
        <ele>1323.00</ele>
        <time>1970-01-01T06:19:48.076Z</time>
      </trkpt>
      <trkpt lat="45.3725433" lon="5.8290949">
        <ele>1320.00</ele>
        <time>1970-01-01T06:20:34.883Z</time>
      </trkpt>
      <trkpt lat="45.3722801" lon="5.8296099">
        <ele>1315.25</ele>
        <time>1970-01-01T06:21:55.613Z</time>
      </trkpt>
      <trkpt lat="45.3723259" lon="5.8300362">
        <ele>1303.50</ele>
        <time>1970-01-01T06:22:50.889Z</time>
      </trkpt>
      <trkpt lat="45.3722801" lon="5.8302779">
        <ele>1296.50</ele>
        <time>1970-01-01T06:23:27.664Z</time>
      </trkpt>
      <trkpt lat="45.3721390" lon="5.8306012">
        <ele>1285.25</ele>
        <time>1970-01-01T06:24:29.593Z</time>
      </trkpt>
      <trkpt lat="45.3719788" lon="5.8307419">
        <ele>1282.25</ele>
        <time>1970-01-01T06:25:08.722Z</time>
      </trkpt>
      <trkpt lat="45.3717690" lon="5.8311129">
        <ele>1274.50</ele>
        <time>1970-01-01T06:26:15.089Z</time>
      </trkpt>
      <trkpt lat="45.3716888" lon="5.8313880">
        <ele>1269.25</ele>
        <time>1970-01-01T06:26:55.612Z</time>
      </trkpt>
      <trkpt lat="45.3716507" lon="5.8317928">
        <ele>1261.00</ele>
        <time>1970-01-01T06:27:51.444Z</time>
      </trkpt>
      <trkpt lat="45.3716660" lon="5.8320680">
        <ele>1255.75</ele>
        <time>1970-01-01T06:28:30.711Z</time>
      </trkpt>
      <trkpt lat="45.3718262" lon="5.8324642">
        <ele>1245.25</ele>
        <time>1970-01-01T06:29:32.184Z</time>
      </trkpt>
      <trkpt lat="45.3717995" lon="5.8328500">
        <ele>1237.25</ele>
        <time>1970-01-01T06:30:21.758Z</time>
      </trkpt>
      <trkpt lat="45.3716812" lon="5.8330112">
        <ele>1235.00</ele>
        <time>1970-01-01T06:30:47.179Z</time>
      </trkpt>
      <trkpt lat="45.3714638" lon="5.8333139">
        <ele>1223.50</ele>
        <time>1970-01-01T06:31:39.055Z</time>
      </trkpt>
      <trkpt lat="45.3712692" lon="5.8335018">
        <ele>1216.25</ele>
        <time>1970-01-01T06:32:21.918Z</time>
      </trkpt>
      <trkpt lat="45.3709335" lon="5.8336091">
        <ele>1208.00</ele>
        <time>1970-01-01T06:33:18.567Z</time>
      </trkpt>
      <trkpt lat="45.3707733" lon="5.8339782">
        <ele>1195.00</ele>
        <time>1970-01-01T06:34:16.162Z</time>
      </trkpt>
      <trkpt lat="45.3706741" lon="5.8342018">
        <ele>1187.00</ele>
        <time>1970-01-01T06:34:55.300Z</time>
      </trkpt>
      <trkpt lat="45.3704948" lon="5.8344321">
        <ele>1178.25</ele>
        <time>1970-01-01T06:35:45.338Z</time>
      </trkpt>
      <trkpt lat="45.3702278" lon="5.8341861">
        <ele>1180.00</ele>
        <time>1970-01-01T06:36:37.803Z</time>
      </trkpt>
      <trkpt lat="45.3698158" lon="5.8342342">
        <ele>1175.50</ele>
        <time>1970-01-01T06:37:32.295Z</time>
      </trkpt>
      <trkpt lat="45.3693657" lon="5.8340859">
        <ele>1172.25</ele>
        <time>1970-01-01T06:38:25.487Z</time>
      </trkpt>
      <trkpt lat="45.3688354" lon="5.8337131">
        <ele>1170.75</ele>
        <time>1970-01-01T06:39:20.359Z</time>
      </trkpt>
      <trkpt lat="45.3683739" lon="5.8336091">
        <ele>1170.25</ele>
        <time>1970-01-01T06:40:01.922Z</time>
      </trkpt>
      <trkpt lat="45.3678474" lon="5.8335242">
        <ele>1168.75</ele>
        <time>1970-01-01T06:40:47.401Z</time>
      </trkpt>
      <trkpt lat="45.3672791" lon="5.8335719">
        <ele>1161.50</ele>
        <time>1970-01-01T06:41:38.108Z</time>
      </trkpt>
      <trkpt lat="45.3668594" lon="5.8335462">
        <ele>1156.25</ele>
        <time>1970-01-01T06:42:18.908Z</time>
      </trkpt>
    </trkseg>
  </trk>
</gpx>
